Centre Name,Type,GEOCODE-LONGITUDE,GEOCODE-LATITUDE,Location,SCD-Region,SCD-Sub Region,Full Address,Suburb,Postcode,Year-Opened,Year(s)-Refurbished/Extended,Total-Centre-GLA m2
Acacia Marketplace,Neighbourhood       ,-27.57557297,153.0259094,"-27.5755729675293, 153.025909423828",Brisbane                                ,Brisbane City,1150 Beaudesert Road, Acacia Ridge ,4110,1985,2000,"7,999"
ANZAC Square Arcade,City Centre         ,-27.46718979,153.0263672,"-27.4671897888184, 153.0263671875",Brisbane                                ,Brisbane City,198 Adelaide Street, Brisbane ,4000,1999,,"2,925"
Ascot Plaza,Neighbourhood       ,-27.43371773,153.0655823,"-27.4337177276611, 153.065582275391",Brisbane                                ,Brisbane City,111-117 Racecourse Road, Ascot ,4007,2001,,"2,468"
Ashgrove Marketplace,Neighbourhood       ,-27.44467545,152.9935303,"-27.4446754455566, 152.993530273438",Brisbane                                ,Brisbane City,16 Ashgrove Avenue, Ashgrove ,4060,2008,,"4,503"
Ashgrove Shopping Village,Neighbourhood       ,-27.44421005,152.9919281,"-27.4442100524902, 152.991928100586",Brisbane                                ,Brisbane City,17 Stewart Road, Ashgrove ,4060,1974,1997,"2,695"
Ashmore City Shopping Centre,Neighbourhood       ,-27.97828674,153.3805847,"-27.9782867431641, 153.380584716797",Brisbane                                ,Brisbane City,Cnr Currumburra & Nerang Roads, Ashmore ,4214,1982,1984 1986 1988 1990,"8,805"
Aspley Arcade 1,Neighbourhood       ,-27.36258507,153.016571,"-27.362585067749, 153.016571044922",Brisbane                                ,Brisbane City,1370 Gympie Road, Aspley ,4034,,,"1,531"
Aspley Central,Neighbourhood       ,-27.36204338,153.0161743,"-27.3620433807373, 153.016174316406",Brisbane                                ,Brisbane City,1374-1378, Gympie Road,4034,,,"2,648"
Aspley Homemaker City,Bulky Goods         ,-27.35462952,153.0181427,"-27.3546295166016, 153.018142700195",Brisbane                                ,Brisbane City,815-825 Zillmere Road, Aspley ,4034,,,"24,235"
Aspley Hypermarket,Sub Regional        ,-27.36201286,153.0141449,"-27.3620128631592, 153.014144897461",Brisbane                                ,Brisbane City,59 Albany Creek Road, Aspley ,4034,1984,1995 2013,"36,019"
Big Top Mount Gravatt,Bulky Goods         ,-27.53126717,153.0740967,"-27.5312671661377, 153.074096679688",Brisbane                                ,Brisbane City,1290 Logan Road, Mount Gravatt ,4122,,,"10,398"
Blunder Road Shopping Village,Neighbourhood       ,-27.57547188,152.9830322,"-27.5754718780518, 152.983032226563",Brisbane                                ,Brisbane City,146 Blunder Road, Oxley ,4075,,,"7,536"
Bracken Ridge Plaza,Neighbourhood       ,-27.33017159,153.026474,"-27.330171585083, 153.026473999023",Brisbane                                ,Brisbane City,Cnr Telegraph & Norris Roads, Bracken Ridge ,4017,1994,1996 2004,"6,113"
Brisbane Arcade,City Centre         ,-27.46902657,153.0255127,"-27.4690265655518, 153.025512695313",Brisbane                                ,Brisbane City,160 Queen Street, Brisbane ,4000,1923,1995,"2,260"
Brisbane Transit Centre,City Centre         ,-27.46657753,153.0202332,"-27.4665775299072, 153.020233154297",Brisbane                                ,Brisbane City,151-171 Roma Street, Brisbane ,4000,1986,1992,"3,352"
Brookside Shopping Centre,Regional            ,-27.40903854,152.9798126,"-27.4090385437012, 152.97981262207",Brisbane                                ,Brisbane City,159 Osborne Road, Mitchelton ,4053,1971,1985 1991 2000,"50,228"
Buranda Village,Neighbourhood       ,-27.50069618,153.036438,"-27.500696182251, 153.036437988281",Brisbane                                ,Brisbane City,Cnr Ipswich Road & Cornwall Street, Buranda ,4102,1978,1998 2005,"11,719"
Calamvale Central,Sub Regional        ,-27.61312294,153.0539246,"-27.6131229400635, 153.053924560547",Brisbane                                ,Brisbane City,662 Compton Road, Calamvale ,4116,2007,2015,"18,298"
Calamvale Marketplace,Neighbourhood       ,-27.63065529,153.0458832,"-27.6306552886963, 153.045883178711",Brisbane                                ,Brisbane City,2605 Beaudesert Road, Calamvale ,4116,2002,,"5,453"
Caltex Carseldine,Neighbourhood       ,-27.3418293,153.0105438,"-27.3418292999268, 153.010543823242",Brisbane                                ,Brisbane City,1754-1760 Gympie Road, Carseldine ,4034,,,"1,848"
Cannon Central,Neighbourhood       ,-27.47109413,153.0996094,"-27.4710941314697, 153.099609375",Brisbane                                ,Brisbane City,1145 Wynnum Road, Cannon Hill ,4170,1979,1994 1998 2004,"8,425"
Cannon Hill K-Mart Plaza,Sub Regional        ,-27.47082901,153.0978088,"-27.4708290100098, 153.097808837891",Brisbane                                ,Brisbane City,Cnr Creek & Wynnum Roads, Cannon Hill ,4170,1973,1989 2003,"17,030"
Carseldine Central,Neighbourhood       ,-27.34502029,153.0110626,"-27.3450202941895, 153.01106262207",Brisbane                                ,Brisbane City,735 Beams Road, Carseldine ,4034,2009,,"5,302"
Carseldine Homemaker Centre,Bulky Goods         ,-27.33185768,153.0088043,"-27.3318576812744, 153.008804321289",Brisbane                                ,Brisbane City,1925 Gympie Road, Carseldine ,4034,,,"14,591"
Central Brunswick Convenience Centre,Neighbourhood       ,-27.46027184,153.0370026,"-27.4602718353271, 153.037002563477",Brisbane                                ,Brisbane City,421 Brunswick Street, Fortitude Valley ,4006,1998,,"2,914"
Centrepoint Plaza - Bowen,Neighbourhood       ,-20.00148582,148.2402191,"-20.001485824585, 148.240219116211",Brisbane                                ,Brisbane City,Cnr Herbert Street & Soldiers Road, Bowen ,4805,1979,1983 2001,"5,387"
Centro On James,Market              ,-27.45690536,153.0402832,"-27.4569053649902, 153.040283203125",Brisbane                                ,Brisbane City,22-46 James Street, Fortitude Valley ,4006,1998,2002,"9,538"
Chermside Markets,Neighbourhood       ,-27.37574577,153.0248108,"-27.3757457733154, 153.024810791016",Brisbane                                ,Brisbane City,Cnr Gympie & Webster Roads, Chermside ,4032,1972,1998,"9,098"
Deagon Market Square,Neighbourhood       ,-27.32957458,153.0569763,"-27.3295745849609, 153.056976318359",Brisbane                                ,Brisbane City,75 Braun Street, Deagon ,4017,1990,2000 2005,"4,636"
DFO Jindalee,Outlet Centre       ,-27.53177261,152.9476318,"-27.5317726135254, 152.947631835938",Brisbane                                ,Brisbane City,16 Amazons Place, Jindalee ,4074,2007,,"16,485"
Eagle Junction Plaza,Neighbourhood       ,-27.41543388,153.0509186,"-27.415433883667, 153.050918579102",Brisbane                                ,Brisbane City,268 Junction Road, Clayfield ,4011,,,"1,013"
Everton Plaza Shopping Centre,Neighbourhood       ,-27.40680313,152.9915009,"-27.4068031311035, 152.991500854492",Brisbane                                ,Brisbane City,791-803 Stafford Road, Everton Park ,4053,1969,1988,"7,198"
Fairfield Gardens,Neighbourhood       ,-27.50933075,153.0263214,"-27.5093307495117, 153.026321411133",Brisbane                                ,Brisbane City,180 Fairfield Road, Fairfield ,4103,1987,1988 2004,"9,950"
Ferny Grove Shopping Village,Neighbourhood       ,-27.40497589,152.9310608,"-27.4049758911133, 152.931060791016",Brisbane                                ,Brisbane City,Cnr McGinn & Archdale Roads, Ferny Grove ,4055,2004,,"4,540"
Festival Towers,City Centre         ,-27.47119141,153.0266266,"-27.47119140625, 153.026626586914",Brisbane                                ,Brisbane City,Cnr Charlotte & Albert Streets, Brisbane ,4000,,,"1,192"
Forest Lake Shopping Centre,Sub Regional        ,-27.62511444,152.9684601,"-27.625114440918, 152.968460083008",Brisbane                                ,Brisbane City,235 Forest Lake Boulevard, Forest Lake ,4078,1997,1997 2004 2005 2011,"24,105"
Gailey Fiveways Shopping Centre,Neighbourhood       ,-27.49722481,152.9900055,"-27.4972248077393, 152.990005493164",Brisbane                                ,Brisbane City,Cnr Gailey & Indooroopilly Roads, Taringa ,4068,1990,,"1,569"
Gasworks,Sub Regional        ,-27.450634,153.0440063,"-27.4506340026855, 153.044006347656",Brisbane                                ,Brisbane City,76 Skyring Terrace, Newstead ,4006,,,"16,346"
Grand 200,Neighbourhood       ,-27.62724495,152.967865,"-27.6272449493408, 152.967864990234",Brisbane                                ,Brisbane City,200 Grand Street, Forest Lake ,4078,2003,,"1,502"
Great Western Super Centre,Sub Regional        ,-27.41656113,152.9495697,"-27.416561126709, 152.949569702148",Brisbane                                ,Brisbane City,Cnr Samford Road & Settlement Road, Keperra ,4054,2000,,"15,404"
Greenslopes Shopping Mall,Neighbourhood       ,-27.51190567,153.0539398,"-27.511905670166, 153.053939819336",Brisbane                                ,Brisbane City,700 Logan Road, Greenslopes ,4120,1986,2003,"9,787"
Homemaker City Cannon Hill,Bulky Goods         ,-27.47219849,153.0976257,"-27.4721984863281, 153.097625732422",Brisbane                                ,Brisbane City,1881 Creek Road, Cannon Hill ,4170,2000,2001,"8,627"
Homemaker The Valley,Bulky Goods         ,-27.45008278,153.0404205,"-27.4500827789307, 153.040420532227",Brisbane                                ,Brisbane City,Cnr Ann & Wickham Streets, Fortitude Valley ,4006,2003,,"38,244"
Homezone Windsor,Sub Regional        ,-27.4380455,153.0237122,"-27.438045501709, 153.023712158203",Brisbane                                ,Brisbane City,142 Newmarket Road, Windsor ,4030,2001,,"16,681"
Inala Plaza Shopping Centre,Sub Regional        ,-27.59802628,152.9742584,"-27.5980262756348, 152.974258422852",Brisbane                                ,Brisbane City,156 Inala Avenue, Inala ,4077,1984,2000,"17,823"
Indooroopilly,Bulky Goods         ,-27.49723053,152.9759979,"-27.4972305297852, 152.975997924805",Brisbane                                ,Brisbane City,34 Coonan Street, Indooroopilly ,4068,1991,1994 2003,"19,767"
Indooroopilly Junction,Neighbourhood       ,-27.50104904,152.97612,"-27.501049041748, 152.976119995117",Brisbane                                ,Brisbane City,96-112 Coonan Street, Indooroopilly ,4068,,,"4,459"
Indooroopilly Shopping Centre,Super Regional      ,-27.49971962,152.9728546,"-27.499719619751, 152.972854614258",Brisbane                                ,Brisbane City,322 Moggill Road, Indooroopilly ,4068,1970,1981 1990 1995 1998 2014,"116,225"
Jindalee Home,Sub Regional        ,-27.53442574,152.9477844,"-27.5344257354736, 152.947784423828",Brisbane                                ,Brisbane City,34 Goggs Road, Jindalee ,4074,1989,1998 2004,"26,453"
Kenmore Plaza,Neighbourhood       ,-27.50680733,152.9482117,"-27.5068073272705, 152.948211669922",Brisbane                                ,Brisbane City,841 Moggill Road, Kenmore ,4069,1986,1991 2003 2016,"9,948"
Kenmore Village Shopping Centre,Sub Regional        ,-27.50595856,152.9390717,"-27.5059585571289, 152.939071655273",Brisbane                                ,Brisbane City,9 Brookfield Road, Kenmore ,4069,1969,1978 1988 1999 2007,"14,679"
Kessels Court,Bulky Goods         ,-27.56316185,153.0718231,"-27.5631618499756, 153.071823120117",Brisbane                                ,Brisbane City,567 Kessels Road, Macgregor ,4109,1988,,"9,252"
Kessels Storage,Bulky Goods         ,-27.56303787,153.0730743,"-27.5630378723145, 153.07307434082",Brisbane                                ,Brisbane City,583-587 Kessels Road, Macgregor ,4109,2000,,"9,815"
Little Stanley Street,Neighbourhood       ,-27.48171806,153.0250092,"-27.4817180633545, 153.025009155273",Brisbane                                ,Brisbane City,153 Stanley Street, South Brisbane ,4101,2001,,"3,764"
Lutwyche City,Sub Regional        ,-27.42145538,153.0335236,"-27.4214553833008, 153.03352355957",Brisbane                                ,Brisbane City,543 Lutwyche Road, Lutwyche ,4030,1974,1990 2003 2008,"19,086"
MacArthur Central Shopping Centre,City Centre         ,-27.46847725,153.0277405,"-27.4684772491455, 153.027740478516",Brisbane                                ,Brisbane City,255 Queen Street, Brisbane ,4000,2002,,"15,032"
Macgregor Home,Bulky Goods         ,-27.56282806,153.0702972,"-27.5628280639648, 153.070297241211",Brisbane                                ,Brisbane City,555 Kessels Road, MacGregor ,4109,2001,2011,"12,505"
Manly Harbour Village - 7 Day Markets,Neighbourhood       ,-27.45426559,153.1853333,"-27.4542655944824, 153.185333251953",Brisbane                                ,Brisbane City,Cnr Cambridge Parade & Stratton Terrace, Manly ,4179,1960,1998,"1,557"
Market Square Shopping Centre (QLD),Neighbourhood       ,-27.57337952,153.0647583,"-27.5733795166016, 153.064758300781",Brisbane                                ,Brisbane City,Cnr Mains Road & McCullough Street, Sunnybank ,4109,1971,1976 1977 1980 1989 2003,"7,065"
Mayfair Village on Manly,Neighbourhood       ,-27.47481728,153.1558838,"-27.474817276001, 153.155883789063",Brisbane                                ,Brisbane City,11 Burnett Street, Manly West ,4179,2004,2007 2012,"6,295"
McWhirters,Themed              ,-27.45735741,153.0341797,"-27.4573574066162, 153.0341796875",Brisbane                                ,Brisbane City,272-290 Brunswick Street, Fortitude Valley ,4006,1989,2000,"4,283"
Merthyr Village Shopping Centre,Neighbourhood       ,-27.46674347,153.0473785,"-27.4667434692383, 153.047378540039",Brisbane                                ,Brisbane City,85 Merthyr Road, New Farm ,4005,1997,,"6,700"
Milton Village,Neighbourhood       ,-27.46855164,153.0024567,"-27.4685516357422, 153.002456665039",Brisbane                                ,Brisbane City,13485 Baroona Road, Milton ,4064,1973,,"2,840"
Mitchelton Homemakers Centre,Bulky Goods         ,-27.4064064,152.9788055,"-27.4064064025879, 152.978805541992",Brisbane                                ,Brisbane City,177 Osbourne Road, Mitchelton ,4133,,,"3,332"
Monier Village,Neighbourhood       ,-27.55902481,152.9510193,"-27.559024810791, 152.951019287109",Brisbane                                ,Brisbane City,166 Monier Road, Darra ,4076,2004,,"5,595"
Morningside Central Shopping Centre,Neighbourhood       ,-27.46626663,153.0801086,"-27.4662666320801, 153.080108642578",Brisbane                                ,Brisbane City,25 Junction Road, Morningside ,4170,1969,1982 2000,"5,452"
Morningside Plaza,Neighbourhood       ,-27.46215057,153.0818481,"-27.4621505737305, 153.081848144531",Brisbane                                ,Brisbane City,Junction Road, Morningside ,4170,,,"27,763"
Mowbray Shopping Centre,Neighbourhood       ,-27.47951317,153.0426483,"-27.479513168335, 153.04264831543",Brisbane                                ,Brisbane City,33 Lytton Road, East Brisbane ,4169,2005,,"3,015"
Mt Gravatt Plaza,Sub Regional        ,-27.53922462,153.082016,"-27.5392246246338, 153.082015991211",Brisbane                                ,Brisbane City,Cnr Creek & Logan Roads, Mount Gravatt ,4122,1981,1995 2006 2007,"12,697"
Mt Ommaney Centre,Major Regional      ,-27.54955864,152.9388428,"-27.5495586395264, 152.938842773438",Brisbane                                ,Brisbane City,171 Dandenong Road, Mount Ommaney ,4074,1979,1995 2008 2009 2010 2011,"57,482"
My Jindalee Village,Neighbourhood       ,-27.53228569,152.9418793,"-27.5322856903076, 152.941879272461",Brisbane                                ,Brisbane City,62 Looranah Street, Jindalee ,4074,1960,1968 1972 1978 1998,"3,161"
Northwest Plaza,Neighbourhood       ,-27.39429474,152.9969025,"-27.3942947387695, 152.99690246582",Brisbane                                ,Brisbane City,97 Flockton Street, Everton Park ,4053,1985,1995,"9,491"
Paddington Central Shopping Centre,Neighbourhood       ,-27.45879173,152.9976196,"-27.4587917327881, 152.997619628906",Brisbane                                ,Brisbane City,107 Latrobe Terrace, Paddington ,4507,1988,1996 2003,"5,717"
Palmdale Shopping Centre,Neighbourhood       ,-27.56089973,153.0836334,"-27.5608997344971, 153.083633422852",Brisbane                                ,Brisbane City,2120 Logan Road, Upper Mount Gravatt ,4122,1978,1996 1999,"5,454"
Park Village Shopping Centre,Neighbourhood       ,-27.55669975,152.9224243,"-27.5566997528076, 152.922424316406",Brisbane                                ,Brisbane City,Horizon Dr & Riverhills Road , Middle Park ,4074,1980,2007,"7,614"
Parkinson Plaza Shopping Village,Neighbourhood       ,-27.62837601,153.0280609,"-27.6283760070801, 153.028060913086",Brisbane                                ,Brisbane City,441 Algester Road, Parkinson ,4115,,,"4,745"
Pinelands Shopping Centre,Neighbourhood       ,-27.58934212,153.0608673,"-27.5893421173096, 153.06086730957",Brisbane                                ,Brisbane City,Cnr Beenleigh & Pinelands Roads, Sunnybank Hills ,4109,1976,1998,"5,897"
Q + A,City Centre         ,-27.46973991,153.0257874,"-27.4697399139404, 153.025787353516",Brisbane                                ,Brisbane City,141 Queen Street, Brisbane ,4000,1969,1997 2009,"32,209"
Queen Adelaide Building,City Centre         ,-27.46995163,153.024292,"-27.4699516296387, 153.024291992188",Brisbane                                ,Brisbane City,90-112 Queen Street Mall, Brisbane ,4000,1996,2004,"9,884"
Queens Plaza,City Centre         ,-27.46827698,153.0261078,"-27.4682769775391, 153.026107788086",Brisbane                                ,Brisbane City,226 Queen Street, Brisbane ,4000,2005,2008,"59,889"
Reading Newmarket,Neighbourhood       ,-27.43717003,153.0080566,"-27.4371700286865, 153.008056640625",Brisbane                                ,Brisbane City,400 Newmarket Road, Newmarket ,4051,2005,,"8,614"
Rochedale Shopping Village,Neighbourhood       ,-27.59656906,153.1248627,"-27.5965690612793, 153.124862670898",Brisbane                                ,Brisbane City,549 Underwood Road, Rochedale ,4123,1974,1999 2005,"5,746"
Rode Shopping Centre,Neighbourhood       ,-27.3923378,153.0118713,"-27.3923377990723, 153.011871337891",Brisbane                                ,Brisbane City,Cnr Rode & Appleby Roads, Chermside West ,4032,1966,1994 1997,"4,299"
Runcorn Plaza Shopping Centre,Neighbourhood       ,-27.58882332,153.0842896,"-27.5888233184814, 153.084289550781",Brisbane                                ,Brisbane City,258 Warrigal Road, Runcorn ,4113,1991,1999,"4,252"
Samuel Village Shopping Centre,Neighbourhood       ,-27.50061989,153.0766144,"-27.5006198883057, 153.076614379883",Brisbane                                ,Brisbane City,Cnr Boundary Road & Samuel Street, Camp Hill ,4152,1993,2003 2010,"1,380"
Save City Shopping Centre,Neighbourhood       ,-27.47151566,153.100769,"-27.4715156555176, 153.100769042969",Brisbane                                ,Brisbane City,1177 Wynnum Road, Cannon Hill ,4170,1978,1990 2003,"5,780"
Sherwood Central,Neighbourhood       ,-27.53236389,152.9808197,"-27.5323638916016, 152.980819702148",Brisbane                                ,Brisbane City,686 Sherwood Road, Sherwood ,4075,,,"3,338"
Southgate Shopping Centre (QLD),Neighbourhood       ,-27.46793365,153.0939026,"-27.4679336547852, 153.093902587891",Brisbane                                ,Brisbane City,23-29 Southgate Avenue, Cannon Hill ,4170,,,"1,682"
Stafford City Shopping Centre,Sub Regional        ,-27.41208458,153.0123749,"-27.4120845794678, 153.01237487793",Brisbane                                ,Brisbane City,400 Stafford Road, Stafford ,4053,1984,1985 1996 1997 2001,"27,465"
Stones Corner Village,Neighbourhood       ,-27.50030327,153.0449982,"-27.5003032684326, 153.044998168945",Brisbane                                ,Brisbane City,405 Logan Road, Stones Corner ,4120,1987,,"3,392"
Strathpine Centre,Regional            ,-27.30739975,152.9913788,"-27.3073997497559, 152.99137878418",Brisbane                                ,Brisbane City,295 Gympie Road, Strathpine ,4500,1983,1986 1987 1989 1998 2007,"43,869"
Sunny Park Shopping Centre,Sub Regional        ,-27.57093811,153.0648804,"-27.5709381103516, 153.064880371094",Brisbane                                ,Brisbane City,Cnr Mains Road & McCullough Street, Sunnybank ,4109,1983,1994 1999 2006,"11,548"
Sunnybank Hills Shoppingtown,Sub Regional        ,-27.61039734,153.0555573,"-27.6103973388672, 153.055557250977",Brisbane                                ,Brisbane City,Cnr Compton & Calam Roads, Sunnybank Hills ,4109,1986,1987 1994 1998 2008,"34,761"
Sunnybank Plaza Shopping Centre,Sub Regional        ,-27.57183075,153.0639954,"-27.5718307495117, 153.063995361328",Brisbane                                ,Brisbane City,Cnr Mains Road & McCullough Street, Sunnybank ,4109,1975,1989 1995 2002,"34,132"
Taigum Square,Sub Regional        ,-27.35005188,153.0480347,"-27.3500518798828, 153.048034667969",Brisbane                                ,Brisbane City,Cnr Beams & Church Roads, Taigum ,4018,1982,2001,"23,380"
Taigum Village Shopping Centre,Neighbourhood       ,-27.34195709,153.0423584,"-27.3419570922852, 153.042358398438",Brisbane                                ,Brisbane City,320 Roghan Road, Taigum ,4018,,,"4,340"
The Gap Village Shopping Centre,Neighbourhood       ,-27.44460678,152.9508972,"-27.4446067810059, 152.950897216797",Brisbane                                ,Brisbane City,1000 Waterworks Road,The Gap,4061,1986,2000 2002,"9,536"
The Myer Centre - Brisbane,City Centre         ,-27.47063065,153.0247955,"-27.470630645752, 153.024795532227",Brisbane                                ,Brisbane City,91 Queen Street, Brisbane ,4000,1998,2006,"68,359"
The Pavillion,City Centre         ,-27.46952248,153.0249176,"-27.4695224761963, 153.024917602539",Brisbane                                ,Brisbane City,130 Queen Street Mall, Brisbane ,4000,1971,1993 1997 2003,"3,614"
"The Village Centre, Kelvin Grove",Neighbourhood       ,-27.45409203,153.0146332,"-27.4540920257568, 153.014633178711",Brisbane                                ,Brisbane City,8 Carraway Street, Kelvin Grove ,4059,2003,,"4,972"
The Zone Oxley,Bulky Goods         ,-27.56702805,152.9825592,"-27.5670280456543, 152.982559204102",Brisbane                                ,Brisbane City,2118 Ipswich Road, Oxley ,4075,2009,,"8,228"
Toombul,Regional            ,-27.40901566,153.0613403,"-27.4090156555176, 153.061340332031",Brisbane                                ,Brisbane City,1015 Sandgate Road, Toombul ,4012,1967,1972 1980 1989 2003 2006 2011,"43,560"
Valley Metro,Neighbourhood       ,-27.45582962,153.0340424,"-27.4558296203613, 153.034042358398",Brisbane                                ,Brisbane City,230 Brunswick Street, Fortitude Valley ,4006,1973,1975 1999 2004-2005,"38,388"
Warrigal Square Shopping Centre,Neighbourhood       ,-27.58987427,153.08638,"-27.5898742675781, 153.086380004883",Brisbane                                ,Brisbane City,261 Warrigal Road, Eight Mile Plains ,4113,2011,2014,"5,182"
Westfield Carindale,Super Regional      ,-27.50315857,153.1016541,"-27.5031585693359, 153.101654052734",Brisbane                                ,Brisbane City,1151 Creek Road, Carindale ,4152,1979,1984 1991 1997 1999 2006 2012,"6,452"
Westfield Chermside,Super Regional      ,-27.3827877,153.0323792,"-27.3827877044678, 153.032379150391",Brisbane                                ,Brisbane City,Cnr Gympie & Hamilton Roads, Chermside ,4032,1957,1986 1991 1998 2000 2006 2017,"136,417"
Westfield Garden City,Super Regional      ,-27.56003571,153.0810852,"-27.5600357055664, 153.081085205078",Brisbane                                ,Brisbane City,Cnr Kessels & Logan Roads, Upper Mount Gravatt ,4122,1965,1986 1998 2004 2014,"150,670"
Windsor Homemaker Centre,Bulky Goods         ,-27.43817902,153.0324554,"-27.4381790161133, 153.032455444336",Brisbane                                ,Brisbane City,190 Lutwyche Road, Windsor ,4030,1988,,"140,393"
Wintergarden Shopping Centre,City Centre         ,-27.46939278,153.0264282,"-27.4693927764893, 153.026428222656",Brisbane                                ,Brisbane City,171-209 Queen Street Mall, Brisbane ,4000,1982,1986 1996 1997 2010-2012,"9,381"
Woolworths Everton Park,Neighbourhood       ,-27.40808487,152.9918518,"-27.4080848693848, 152.991851806641",Brisbane                                ,Brisbane City,768 Stafford Road, Everton ,4053,2015,,"13,280"
Wynnum Plaza Shopping Centre,Sub Regional        ,-27.45721626,153.1552734,"-27.4572162628174, 153.1552734375",Brisbane                                ,Brisbane City,2021 Wynnum Road, Wynnum West ,4178,1980,1996 1997 2006,"5,685"
Wynnum Shopping Centre,Neighbourhood       ,-27.45721626,153.1552734,"-27.4572162628174, 153.1552734375",Brisbane                                ,Brisbane City,Cnr Bay Terrace & Florence Street, Wynnum ,4178,1988,,"29,382"
,,,,,,,,,,,,"3,847"
