Centre Name,Type,GEOCODE-LONGITUDE,GEOCODE-LATITUDE,SCD-Region,SCD-Sub Region,Full Address,Suburb,State,Postcode,Year-Opened,Year(s)-Refurbished/Extended,Total-Centre-GLA
76 Robina Town Centre Drive,Neighbourhood       ,153.3888092,-28.07978058,Moreton                                 ,Gold Coast City Part B,"Cnr Robina Town Centre & Scottsdale Drive, Robina QLD 4226",Robina,QLD,4226      ,1997,,"2,254"
Acacia Marketplace,Neighbourhood       ,153.0259247,-27.57591057,Brisbane                                ,Brisbane City,"1150 Beaudesert Road, Acacia Ridge QLD 4110",Acacia Ridge,QLD,4110      ,1985,2000,"7,999"
Albany Creek Village,Neighbourhood       ,152.9677429,-27.34620667,Brisbane                                ,Pine Rivers Shire,"700 Albany Creek Road, Albany Creek QLD 4035",Albany Creek,QLD,4035      ,1988,1998 2001,"10,078"
Alexandra Hills Shopping Centre,Neighbourhood       ,153.2212982,-27.52394867,Brisbane                                ,Redland Shire,"Cnr Finucane Road & Cambridge Drive, Alexandra Hills QLD 4161",Alexandra Hills,QLD,4161      ,1970,1993 1997,"12,800"
Allenstown Square,Neighbourhood       ,150.5033722,-23.39044571,Fitzroy                                 ,Rockhampton,"139-145 Derby Street, Allenstown QLD 4700",Allenstown,QLD,4700      ,1988,2004 2016,"7,930"
Annandale Central,Neighbourhood       ,146.7920685,-19.31712341,Northern                                ,Townsville City,"Cnr MacArthur Drive & University Road, Annandale QLD 4814",Annandale,QLD,4814      ,2000,,"6,970"
ANZAC Square Arcade,City Centre         ,153.0262146,-27.46716881,Brisbane                                ,Brisbane City,"198 Adelaide Street, Brisbane QLD 4000",Brisbane,QLD,4000      ,1999,,"2,925"
Arana Hills Plaza,Sub Regional        ,152.9593811,-27.39854622,Moreton                                 ,Moreton,"Cnr Patricks & Dawson  Parade, Arana Hills QLD 4054",Arana Hills,QLD,4054      ,1978,1998 2011,"16,433"
Arndale Shopping Centre (QLD),Neighbourhood       ,153.1244507,-27.61176109,Brisbane                                ,Logan City,"17-27 Cinderella Drive, Springwood QLD 4127",Springwood,QLD,4127      ,1974,1987 1998 2002 2003 2004 2005,"11,320"
Arundel Plaza,Neighbourhood       ,153.351059,-27.94709206,Moreton                                 ,Gold Coast City Part B,"230-232 Napper Road, Arundel QLD 4214",Arundel,QLD,4214      ,0,,"9,753"
Ascot Plaza,Neighbourhood       ,153.0655212,-27.43375015,Brisbane                                ,Brisbane City,"111-117 Racecourse Road, Ascot QLD 4007",Ascot,QLD,4007      ,2001,,"2,468"
Ashgrove Marketplace,Neighbourhood       ,152.993515,-27.4448719,Brisbane                                ,Brisbane City,"16 Ashgrove Avenue, Ashgrove QLD 4060",Ashgrove,QLD,4060      ,2008,,"4,943"
Ashgrove Shopping Village,Neighbourhood       ,152.9924469,-27.44511986,Brisbane                                ,Brisbane City,"17 Stewart Road, Ashgrove QLD 4060",Ashgrove,QLD,4060      ,1974,1997,"2,695"
Ashmore City Shopping Centre,Neighbourhood       ,153.3804474,-27.97789574,Brisbane                                ,Brisbane City,"Cnr Currumburra & Nerang Roads, Ashmore QLD 4214",Ashmore,QLD,4214      ,1982,1984 1986 1988 1990,"8,805"
Aspley Arcade 1,Neighbourhood       ,153.0163269,-27.36255264,Brisbane                                ,Brisbane City,"1370 Gympie Road, ASPLEY QLD 4034",ASPLEY,QLD,4034      ,0,,"1,531"
Aspley Central,Neighbourhood       ,153.0164642,-27.36218834,Brisbane                                ,Brisbane City,"1374-1378 Gympie Road, ASPLEY QLD 836",ASPLEY,QLD,4036      ,0,,"2,648"
Aspley Homemaker City,Bulky Goods         ,153.0181427,-27.35481262,Brisbane                                ,Brisbane City,"815-825 Zillmere Road, Aspley QLD 4034",Aspley,QLD,4034      ,0,,"24,235"
Aspley Hypermarket,Sub Regional        ,153.0144196,-27.36188698,Brisbane                                ,Brisbane City,"59 Albany Creek Road, Aspley QLD 4034",Aspley,QLD,4034      ,1984,1995 2013 2017,"36,019"
Atherton Square,Neighbourhood       ,145.4786072,-17.26238632,Northern                                ,Northern,"14 Cook Street, Atherton QLD 4883",Atherton,QLD,4883      ,1984,1992,"4,927"
Australia Fair,Regional            ,153.4154053,-27.96835136,Moreton                                 ,Gold Coast City Part B,"42 Marine Parade, Southport QLD 4215",Southport,QLD,4215      ,1983,1985 1990 1993 1998 2017 2018,"70,466"
Bargara Central,Neighbourhood       ,152.4552002,-24.81834984,Wide Bay-Burnett                        ,Bundaberg,"699 Bagara Road, Bargara QLD 4670",Bargara,QLD,4670      ,1998,2008 2016,"13,013"
Bay Plaza,Neighbourhood       ,152.8419495,-25.28311729,Wide Bay-Burnett                        ,Hervey Bay City,"27 Goodwin Drive & Hornsby Road, Pialba QLD 4655",Pialba,QLD,4655      ,1981,2008,"5,545"
Bay Village,Themed              ,153.0898743,-26.38712883,Moreton                                 ,Sunshine Coast,"18 Hastings Street, Noosa Heads QLD 4567",Noosa Heads,QLD,4567      ,1987,1994 2000 2004,"2,759"
Beenleigh MarketPlace,Sub Regional        ,153.2064819,-27.71767426,Brisbane                                ,Logan City,"114-118 George Street, Beenleigh QLD 4207",Beenleigh,QLD,4207      ,1999,,"17,700"
Beenleigh Village Mall,Neighbourhood       ,153.2063141,-27.71642494,Brisbane                                ,Logan City,"141-151 George Street, Beenleigh QLD 4207",Beenleigh,QLD,4207      ,1985,2015 2016,"8,494"
Big Top Mount Gravatt,Bulky Goods         ,153.0722504,-27.52953529,Brisbane                                ,Brisbane City,"1290 Logan Road, Mount Gravatt QLD 4122",Mount Gravatt,QLD,4122      ,0,,"10,398"
Big Top Shopping Centre,Neighbourhood       ,153.0909119,-26.65283394,Moreton                                 ,Sunshine Coast,"12 - 20 Ocean Street, Maroochydore QLD 4558",Maroochydore,QLD,4558      ,1975,1994 2005 2013,"9,270"
Biloela Shoppingworld,Neighbourhood       ,150.5131226,-24.40195847,Brisbane                                ,Caboolture Shire,"Cnr Gladstone Road & Kariboe Street, Biloela QLD 4715",Biloela,QLD,4715      ,2000,1986 1995 1999 ,"7,609"
Birkdale Fair,Neighbourhood       ,153.2180786,-27.49153328,Brisbane                                ,Redland Shire,"Cnr Birkdale Road & Mary Pleasant Drive, Birkdale QLD 4159",Birkdale,QLD,4159      ,1993,2003 2008,"5,419"
Bluewater Square,Neighbourhood       ,153.114624,-27.23028374,Brisbane                                ,Redcliffe City,"20 Anzac Avenue, Redcliffe QLD 4020",Redcliffe,QLD,4020      ,2008,,"9,844"
Blunder Road Shopping Village,Neighbourhood       ,152.9830017,-27.57550049,Brisbane                                ,Brisbane City,"146 Blunder Road, Oxley QLD 4075",Oxley,QLD,4075      ,0,,"7,332"
Booval Fair Shopping Centre,Sub Regional        ,152.7897339,-27.61523819,Brisbane                                ,Ipswich City,"Cnr Brisbane & South Station Roads, Booval QLD 4304",Booval,QLD,4304      ,1969,1986 1997 2008,"23,246"
Boyne Plaza,Neighbourhood       ,151.3544617,-23.94761276,Fitzroy                                 ,Gladstone,"Cnr Wyndham Avenue & Centenary Drive, Boyne Island QLD 4680",Boyne Island,QLD,4680      ,1982,,"8,284"
Bracken Ridge Plaza,Neighbourhood       ,153.026001,-27.33062172,Brisbane                                ,Brisbane City,"Cnr Telegraph & Norris Roads, Bracken Ridge QLD 4017",Bracken Ridge,QLD,4017      ,1994,1996 2004,"8,147"
Brassall Shopping Centre,Neighbourhood       ,152.7460327,-27.59768677,Brisbane                                ,Ipswich City,"68 Hunter Street, Brassall QLD 4305",Brassall,QLD,4305      ,1979,1998,"10,429"
Bribie Island Shopping Centre,Sub Regional        ,153.1568146,-27.06403732,Brisbane                                ,Caboolture Shire,"Goodwin Drive, Bongaree QLD 4507",Bongaree,QLD,4507      ,1997,2007,"10,594"
Brickworks,Bulky Goods         ,153.4098969,-27.98041916,Moreton                                 ,Gold Coast City Part B,"107 Ferry Road, Southport QLD 4215",Southport,QLD,4215      ,1986,2003 2005 2006 2016,"15,032"
Brisbane Arcade,City Centre         ,153.0253906,-27.46882057,Brisbane                                ,Brisbane City,"160 Queen Street, Brisbane QLD 4000",Brisbane,QLD,4000      ,1923,1995,"3,484"
Brisbane Transit Centre,City Centre         ,153.0183716,-27.46616173,Brisbane                                ,Brisbane City,"151-171 Roma Street, Brisbane QLD 4000",Brisbane,QLD,4000      ,1986,1992,"3,352"
Brookside Shopping Centre,Regional            ,152.9796295,-27.40908432,Brisbane                                ,Brisbane City,"159 Osborne Road, Mitchelton QLD 4053",Mitchelton,QLD,4053      ,1971,1985 1991 2000 ,"37,184"
Browns Plains Homemaker,Bulky Goods         ,153.0449219,-27.66455078,Brisbane                                ,Logan City,"18 Commerce Drive, Browns Plains QLD 4118",Browns Plains,QLD,4118      ,0,,"37,097"
Buderim Marketplace,Neighbourhood       ,153.0500183,-26.68545914,Moreton                                 ,Sunshine Coast,"67 Burnett Street, Buderim QLD 4556",Buderim,QLD,4556      ,2001,,"3,989"
Bundaberg Home Centre,Bulky Goods         ,152.3767853,-24.85381317,Wide Bay-Burnett                        ,Bundaberg,"2 Stancer Court, Kensington QLD 4670",Kensington,QLD,4670      ,0,,"9,176"
Bundall Circle,Bulky Goods         ,153.409256,-28.01016045,Moreton                                 ,Gold Coast City Part B,"21-29 Ashmore Road, Bundall QLD 4217",Bundall,QLD,4217      ,1988,,"5,023"
Buranda Village,Neighbourhood       ,153.0361481,-27.50069237,Brisbane                                ,Brisbane City,"Cnr Ipswich Road & Cornwall Street, Buranda QLD 4102",Buranda,QLD,4102      ,1978,1998 2005,"11,561"
Burdekin Plaza,Neighbourhood       ,147.4045868,-19.57188797,Northern                                ,Townsville City,"118 Edwards Street, Ayr QLD 4807",Ayr,QLD,4807      ,0,,"5,457"
Burleigh HomeSpace,Bulky Goods         ,153.4231567,-28.07606697,Moreton                                 ,Gold Coast City Part B,"1 Santa Maria Court, Burleigh Waters QLD 4220",Burleigh Waters,QLD,4220      ,2004,,"12,400"
Burnside Village (QLD),Neighbourhood       ,152.9502869,-26.64167595,Moreton                                 ,Moreton,"89 Coes Creek Road, Burnside  QLD 4560",Burnside ,QLD,4560      ,0,,"1,884"
Burpengary Central,Neighbourhood       ,152.9745026,-27.15350533,Brisbane                                ,Caboolture Shire,"164-166 Station Road, Burpengary QLD 4505",Burpengary,QLD,4505      ,0,,"4,676"
Burpengary Plaza,Neighbourhood       ,152.9748535,-27.15349007,Brisbane                                ,Caboolture Shire,"177-183 Station Road, Burpengary QLD 4505",Burpengary,QLD,4505      ,1995,2017,"11,425"
C-Square Nambour,Neighbourhood       ,152.958374,-26.62618828,Moreton                                 ,Sunshine Coast,"52-64 Currie Street, Nambour QLD 4560",Nambour,QLD,4560      ,1990,1999,"9,527"
Caboolture Square,Sub Regional        ,152.9496918,-27.08532906,Brisbane                                ,Caboolture Shire,"60-78 King Street, Caboolture QLD 4510",Caboolture,QLD,4510      ,1986,2001,"16,204"
Cairns Central,Regional            ,145.7720337,-16.92534447,Far North                               ,Cairns City,"Cnr McLeod & Spence Streets, Cairns QLD 4870",Cairns,QLD,4870      ,1997,,"52,499"
Cairns Hypermart,Bulky Goods         ,145.7715759,-16.92769432,Far North                               ,Cairns City,"101-113 Spence Street, Cairns QLD 4870",Cairns,QLD,4870      ,1995,1997,"14,586"
Calamvale Central,Sub Regional        ,153.0312805,-27.36472893,Brisbane                                ,Brisbane City,"662 Compton Road, Calamvale QLD 4116",Calamvale,QLD,4116      ,2007,2015,"17,672"
Calamvale Marketplace,Neighbourhood       ,153.0458374,-27.63096046,Brisbane                                ,Brisbane City,"2605 Beaudesert Road, Calamvale QLD 4116",Calamvale,QLD,4116      ,2002,,"5,453"
Caltex Carseldine,Neighbourhood       ,153.0106354,-27.34190369,Brisbane                                ,Brisbane City,"1754-1760 Gympie Road, Carseldine QLD 4034",Carseldine,QLD,4034      ,0,,"1,848"
Camp Hill Marketplace,Neighbourhood       ,153.0764771,-27.50061607,Brisbane                                ,Brisbane City,"25 Samuel Street, Camp Hill QLD 4152",Camp Hill,QLD,4152      ,1993,2003 2016,"6,499"
Caneland Central,Major Regional      ,149.1781616,-21.13929749,Mackay                                  ,Mackay City,"Cnr Mangrove Road & Victoria Street, Mackay QLD 4740",Mackay,QLD,4740      ,1979,1984 1992 1995 1999 2003 2011,"66,061"
Cannon Central,Neighbourhood       ,153.0986633,-27.47080421,Brisbane                                ,Brisbane City,"1145 Wynnum Road, Cannon Hill QLD 4170",Cannon Hill,QLD,4170      ,1979,1994 1998 2004 2017,"8,425"
Cannon Hill K-Mart Plaza,Sub Regional        ,153.0968475,-27.4705143,Brisbane                                ,Brisbane City,"Cnr Creek & Wynnum Roads, Cannon Hill QLD 4170",Cannon Hill,QLD,4170      ,1973,1989 2003 2018,"17,030"
Cannon Park City Centre,Neighbourhood       ,146.7238159,-19.31965256,Northern                                ,Northern,"Hervey Range Road, Thuringowa QLD 4817",Thuringowa,QLD,4817      ,1996,,"5,939"
Cannon Park Discount Centre,Neighbourhood       ,146.7238159,-19.31965256,Northern                                ,Northern,"Hervey Range Road, Thuringowa QLD 4817",Thuringowa,QLD,4817      ,2003,,"6,904"
Capalaba Central Shopping Centre,Regional            ,153.1947021,-27.52304268,Brisbane                                ,Redland Shire,"Cnr Moreton Bay Roads, Capalaba QLD 4157",Capalaba,QLD,4157      ,1994,1996 2008,"41,292"
Capalaba Park Shopping Centre,Regional            ,153.1907196,-27.52372742,Brisbane                                ,Redland Shire,"16619 Redland Bay & Mount Cotton Roads, Capalaba QLD 4157",Capalaba,QLD,4157      ,1981,1985 1995 1999,"34,628"
Carrara Shopping Centre,Neighbourhood       ,153.3875427,-28.03060913,Moreton                                 ,Gold Coast City Part B,"54 Manchester Road, Carrara QLD 4211",Carrara,QLD,4211      ,2011,,"4,001"
Carseldine Central,Neighbourhood       ,153.0107422,-27.34494209,Brisbane                                ,Brisbane City,"735 Beams Road, Carseldine QLD 4034",Carseldine,QLD,4034      ,2009,,"5,678"
Carseldine Homemaker Centre,Bulky Goods         ,153.0103149,-27.33210182,Brisbane                                ,Brisbane City,"1925 Gympie Road, Carseldine QLD 4034",Carseldine,QLD,4034      ,0,,"14,962"
Castletown Shoppingworld,Regional            ,146.7915192,-19.27160645,Northern                                ,Townsville City,"Cnr Kings Road & Woolcock Street, Townsville QLD 4810",Townsville,QLD,4810      ,1981,1989 1996 1997 2006 2010 2015,"37,547"
Central Brunswick Convenience Centre,Neighbourhood       ,153.0363922,-27.45989609,Brisbane                                ,Brisbane City,"421 Brunswick Street, Fortitude Valley QLD 4006",Fortitude Valley,QLD,4006      ,1998,,"2,914"
Central Highlands Marketplace,Sub Regional        ,148.1031952,-23.3122921,Northern                                ,Northern,"2 - 10 Codenwarra Road, Emerald QLD 4720",Emerald,QLD,4720      ,2012,,"18,052"
Central Square,Neighbourhood       ,152.8369751,-25.28950119,Wide Bay-Burnett                        ,Hervey Bay City,"163 Boat Harbour Drive, Hervey Bay QLD 4655",Hervey Bay,QLD,4655      ,1995,,"1,351"
Centre 45,Neighbourhood       ,153.2581177,-27.78563499,Moreton                                 ,Gold Coast City Part B,"7 Eggersdorf Road, Ormeau QLD 4208",Ormeau,QLD,4208      ,0,,"1,447"
Centrepoint Plaza - Bowen,Neighbourhood       ,148.2402649,-20.00178719,Brisbane                                ,Brisbane City,"Cnr Herbert Street & Soldiers Road, Bowen QLD 4805",Bowen,QLD,4805      ,1979,1983 2001,"5,387"
Centrepoint Plaza - Caloundra,Neighbourhood       ,153.1342621,-26.80506134,Mackay                                  ,Mackay City,"50 Bulcock Street, Caloundra QLD 4551",Caloundra,QLD,4551      ,1995,1995,"2,028"
Centro On James,Market              ,153.0401306,-27.45634651,Brisbane                                ,Brisbane City,"22-46 James Street, Fortitude Valley QLD 4006",Fortitude Valley,QLD,4006      ,1998,2002,"9,538"
Chancellor Village Retail Centre,Neighbourhood       ,152.3767853,-26.71749878,Moreton                                 ,Sunshine Coast,"11 Chancellor Village Boulevard, Sippy Downs QLD 4556",Sippy Downs,QLD,4556      ,2005,,"1,375"
Chatswood Central Shopping Centre,Neighbourhood       ,153.1380005,-27.6328392,Brisbane                                ,Logan City,"Cnr Magellan & Chatswood Roads, Springwood QLD 4127",Springwood,QLD,4127      ,1987,1992 1998 2004 2010,"6,130"
Chermside Market Place,Neighbourhood       ,153.0245667,-27.37585258,Brisbane                                ,Brisbane City,"Cnr Gympie & Webster Roads, Chermside QLD 4032",Chermside,QLD,4032      ,1972,1998,"9,098"
Chevron Renaissance Shopping Centre,City Centre         ,153.4281311,-27.99816322,Moreton                                 ,Gold Coast City Part B,"3240 Surfers Paradise Boulevard, Surfers Paradise QLD 4217",Surfers Paradise,QLD,4217      ,2000,,"13,186"
Childers Shopping Centre,Neighbourhood       ,152.2705383,-25.2322464,Wide Bay-Burnett                        ,Bundaberg,"111 Churchill Street, Childers QLD 4660",Childers,QLD,4660      ,0,,"3,299"
Circle on Cavill,City Centre         ,153.4277191,-28.00092888,Moreton                                 ,Gold Coast City Part B,"3184 Surfers Paradise Boulevard, Surfers Paradise QLD 4217",Surfers Paradise,QLD,4217      ,2006,,"12,301"
City Centre Plaza,Sub Regional        ,150.5098877,-23.37684059,Fitzroy                                 ,Rockhampton,"Cnr Fitzroy & Bolsover Street, Rockhampton QLD 4700",Rockhampton,QLD,4700      ,1989,1997 2008,"14,110"
Clifford Gardens Shopping Centre,Sub Regional        ,151.9317017,-27.5651226,Darling Downs                           ,Toowoomba,"98-124 Anzac Avenue, Toowoomba QLD 4350",Toowoomba,QLD,4350      ,1983,1985 1986 1995 1995-1996 2008-2009,"31,208"
Clifton Village Shopping Centre,Neighbourhood       ,145.6678772,-16.76431274,Darling Downs                           ,Darling Downs,"Cnr Captain Cook Highway & Endeavour Road, Clifton Beach QLD 4879",Clifton Beach,QLD,4879      ,2004,,"7,850"
Clontarf Bayside Plaza,Neighbourhood       ,153.079422,-27.26117134,Brisbane                                ,Redcliffe City,"9 Elizabeth Avenue, Clontarf QLD 4019",Clontarf,QLD,4019      ,2002,,"2,990"
Collingwood Park Market Place,Neighbourhood       ,152.8562317,-27.62501907,Brisbane                                ,Ipswich City,"157 Collingwood Drive, Collingwood Park QLD 4301",Collingwood Park,QLD,4301      ,2009,,"4,561"
Coolum Park Shopping Centre,Neighbourhood       ,153.0783997,-26.53746796,Moreton                                 ,Sunshine Coast,"South Coolum Road, Coolum QLD 4573",Coolum,QLD,4573      ,2004,,"4,183"
Coolum Shopping Village,Neighbourhood       ,153.0895844,-26.52626228,Moreton                                 ,Sunshine Coast,"8 Birtwill Street, Coolum Beach QLD 4573",Coolum Beach,QLD,4573      ,1980,2011,"5,162"
Coomera East,Neighbourhood       ,153.3360138,-27.85252762,Fitzroy                                 ,Gladstone,"328  Foxwell Road, Coomera QLD 4209",Coomera,QLD,4209      ,2016,,"2,740"
Coomera Square,Neighbourhood       ,153.3006287,-27.8514576,Fitzroy                                 ,Gladstone,"Cnr Days & Coach Road, Coomera QLD 4209",Coomera,QLD,4209      ,0,,"9,380"
Currimundi Markets,Neighbourhood       ,153.1223907,-26.77312851,Moreton                                 ,Sunshine Coast,"Cnr Bellara Drive & Nicklin Way, Currimundi QLD 4551",Currimundi,QLD,4551      ,2000,,"5,600"
Currumbin Fair,Neighbourhood       ,153.4713593,-28.15543556,Moreton                                 ,Gold Coast City Part B,"15-23 Bienvenue Drive, Currumbin Waters QLD 4223",Currumbin Waters,QLD,4223      ,1985,2003,"1,864"
Dalby Shoppingworld,Sub Regional        ,151.2668152,-27.18072128,Darling Downs                           ,Darling Downs,"17-67 Cunningham Street, Dalby QLD 4405",Dalby,QLD,4405      ,2006,2006,"12,197"
Deagon Market Square,Neighbourhood       ,153.0575409,-27.33050156,Brisbane                                ,Brisbane City,"75 Braun Street, Deagon QLD 4017",Deagon,QLD,4017      ,1990,2000 2005,"4,636"
Deception Bay Market Square,Sub Regional        ,153.0288391,-27.19513893,Brisbane                                ,Caboolture Shire,"Cnr Bay Ave & Deception Bay Road, Deception Bay QLD 4508",Deception Bay,QLD,4508      ,0,,"13,634"
Deception Bay Shopping Centre,Sub Regional        ,153.0290985,-27.19519234,Brisbane                                ,Caboolture Shire,"Cnr Deception Bay Road & Bay Avenue, Deception Bay QLD 4508",Deception Bay,QLD,4508      ,1980,1993 2002 2003,"13,554"
DFO Cairns,Outlet Centre       ,145.7533264,-16.93365479,Far North                               ,Cairns City,"274 Mulgrave Road, Cairns QLD 4870",Cairns,QLD,4870      ,1983,1985 1987 1988 2007-2008 2018,"26,064"
DFO Jindalee,Outlet Centre       ,152.947464,-27.5316391,Brisbane                                ,Brisbane City,"16 Amazons Place, Jindalee QLD 4074",Jindalee,QLD,4074      ,2007,,"16,485"
Domain Central Townsville,Bulky Goods         ,146.758194,-19.27686691,Northern                                ,Townsville City,"103 Duckworth Street, Garbutt QLD 4814",Garbutt,QLD,4814      ,2005,2017,"40,774"
Eagle Junction Plaza,Neighbourhood       ,153.0508118,-27.41518021,Brisbane                                ,Brisbane City,"268 Junction Road, Clayfield QLD 4011",Clayfield,QLD,4011      ,0,,"1,013"
Eli Waters Shopping Centre,Neighbourhood       ,152.815567,-25.28661537,Wide Bay-Burnett                        ,Hervey Bay City,"2 Ibis Boulevard, Eli Waters QLD 4655",Eli Waters,QLD,4655      ,2007,,"6,077"
Emerald Village,Neighbourhood       ,148.1562958,-23.5180397,Brisbane                                ,Redland Shire,"51-57 Hospital Road, Emerald QLD 4720",Emerald,QLD,4720      ,1980,1986 1996,"7,281"
Everton Plaza Shopping Centre,Neighbourhood       ,152.9915314,-27.40676689,Brisbane                                ,Brisbane City,"791-803 Stafford Road, Everton Park QLD 4053",Everton Park,QLD,4053      ,1969,1988,"7,198"
Fairfield Gardens,Neighbourhood       ,153.0254822,-27.50874901,Brisbane                                ,Brisbane City,"180 Fairfield Road, Fairfield QLD 4103",Fairfield,QLD,4103      ,1987,1988 2004 2018,"11,897"
Ferny Grove Shopping Village,Neighbourhood       ,152.9314575,-27.40472794,Brisbane                                ,Brisbane City,"Cnr McGinn & Archdale Roads, Ferny Grove QLD 4055",Ferny Grove,QLD,4055      ,2004,,"4,439"
Festival Towers,City Centre         ,153.0266876,-27.47151947,Brisbane                                ,Brisbane City,"Cnr Charlotte & Albert Streets, Brisbane QLD 4000",Brisbane,QLD,4000      ,0,,"1,192"
Focus @ Rothwell,Bulky Goods         ,153.0242767,-27.12462616,Brisbane                                ,Redcliffe City,"757 Deception Bay Road, Rothwell QLD 4022",Rothwell,QLD,4022      ,2005,,"11,088"
Forest Lake Shopping Centre,Sub Regional        ,152.9691925,-27.62373161,Brisbane                                ,Brisbane City,"235 Forest Lake Boulevard, Forest Lake QLD 4078",Forest Lake,QLD,4078      ,1997,1997 2004 2005 2011,"21,776"
Freedom Homemaker Centre,Bulky Goods         ,153.1931763,-27.52636528,Brisbane                                ,Redland Shire,"67 Redland Bay Road, Capalaba QLD 4157",Capalaba,QLD,4157      ,1997,2017,"5,729"
Gabba Central,Neighbourhood       ,153.035553,-27.48707771,Brisbane                                ,Brisbane City,"803  Stanley  Street, Woolloongabba QLD 4102",Woolloongabba,QLD,4102      ,2007,,"4,174"
Gailey Fiveways Shopping Centre,Neighbourhood       ,152.9903259,-27.49824905,Brisbane                                ,Brisbane City,"Cnr Gailey & Indooroopilly Roads, Taringa QLD 4068",Taringa,QLD,4068      ,1990,,"1,569"
Garbutt Central,Neighbourhood       ,146.7633057,-19.26999855,Northern                                ,Thuringowa City,"26-28 Civil Road, Townsville QLD 4810",Townsville,QLD,4810      ,0,,"3,102"
Gasworks Plaza,Sub Regional        ,153.043869,-27.45034409,Brisbane                                ,Brisbane City,"76 Skyring Terrace, Newstead QLD 4006",Newstead,QLD,4006      ,0,,"13,517"
Gatton Square,Neighbourhood       ,152.2782745,-27.55885887,Darling Downs                           ,Toowoomba,"114 Spencer Street, Gatton QLD 4343",Gatton,QLD,4343      ,1980,2005,"4,715"
Gladstone Central,Neighbourhood       ,151.2487335,-23.85442162,Fitzroy                                 ,Gladstone,"45-69 Dawson Road, Gladstone QLD 4680",Gladstone,QLD,4680      ,2000,2006,"12,579"
Gladstone Home,Bulky Goods         ,151.2259979,-23.87683487,Fitzroy                                 ,Gladstone,"220 Dawson Highway, Gladstone QLD 4680",Gladstone,QLD,4680      ,2007,,"21,782"
Gladstone Shopping Centre,Neighbourhood       ,151.2448578,-23.89569283,Fitzroy                                 ,Gladstone,"901 Kirkwood Drive Road, Kirkwood QLD 4680",Kirkwood,QLD,4680      ,0,,"6,363"
Gladstone Square,Neighbourhood       ,151.2593994,-23.84786224,Fitzroy                                 ,Gladstone,"184 Goondoon Street, Gladstone QLD 4680",Gladstone,QLD,4680      ,1971,1980 1983 1994 2000 2016,"6,923"
Goldfields Plaza (QLD),Neighbourhood       ,152.6607208,-26.1880188,Wide Bay-Burnett                        ,Wide Bay-Burnett,"Cnr Monkland & Nash Streets, Gympie QLD 4570",Gympie,QLD,4570      ,1985,1993 2001,"7,609"
Gracemere Shoppingworld,Neighbourhood       ,150.4537506,-23.43161774,Fitzroy                                 ,Rockhampton,"Capricorn Highway & McLaughlin Street, Gracemere QLD 4702",Gracemere,QLD,4702      ,2011,,"6,850"
Grand 200,Neighbourhood       ,152.5804596,-27.37374306,Brisbane                                ,Brisbane City,"200 Grand Street, Forest Lake QLD 4078",Forest Lake,QLD,4078      ,2003,,"1,016"
Grand Central Toowoomba,Major Regional      ,151.9492493,-27.56116676,Darling Downs                           ,Toowoomba,"Cnr Margaret & Dent Streets, Toowoomba QLD 4350",Toowoomba,QLD,4350      ,1996,1997 1998 1999 2007 2017,"77,669"
Grand Plaza Shopping Centre,Regional            ,153.040741,-27.66298485,Brisbane                                ,Logan City,"27-49 Browns Plains Road, Browns Plains QLD 4118",Browns Plains,QLD,4118      ,1994,1998 2006,"53,393"
Great Western Super Centre,Sub Regional        ,152.9495544,-27.41614151,Brisbane                                ,Brisbane City,"Cnr Samford Road & Settlement Road, Keperra QLD 4054",Keperra,QLD,4054      ,2000,,"15,404"
Greenslopes Shopping Mall,Neighbourhood       ,153.0539398,-27.51197052,Brisbane                                ,Brisbane City,"700 Logan Road, Greenslopes QLD 4120",Greenslopes,QLD,4120      ,1986,2003,"9,787"
Gympie Central,Sub Regional        ,152.6668701,-26.19876289,Wide Bay-Burnett                        ,Wide Bay-Burnett,"Cnr Bruce Highway & Excelsior Road, Gympie QLD 4570",Gympie,QLD,4570      ,1973,1992 2001 2006,"14,148"
Gympie Marketplace,Neighbourhood       ,152.6591187,-26.18993187,Moreton                                 ,Sunshine Coast,"12 Reef Street, Gympie QLD 4570",Gympie,QLD,4570      ,0,,"3,311"
Harbour Town Shopping Centre,Outlet Centre       ,153.3879089,-27.93155861,Moreton                                 ,Gold Coast City Part B,"147-189 Gold Coast Highway & Oxley Drive, Biggera Waters QLD 4216",Biggera Waters,QLD,4216      ,1999,2005 2007 2016,"54,047"
Harvey Norman Centre Bundall,Bulky Goods         ,153.2425995,-28.00350952,Moreton                                 ,Gold Coast City Part B,"29-45 Ashmore Road, Bundall QLD 4217",Bundall,QLD,4217      ,1988,,"23,939"
Harvey Norman Centre Loganholme,Bulky Goods         ,153.1742096,-27.66428566,Brisbane                                ,Logan City,"3890 Pacific Highway, Loganholme QLD 4129",Loganholme,QLD,4129      ,2004,,"13,960"
Helensvale Plaza,Neighbourhood       ,153.3348999,-27.92363548,Moreton                                 ,Gold Coast City Part B,"12 Sir John Overall Drive, Helensvale QLD 4212",Helensvale,QLD,4212      ,1991,2005,"9,273"
Hermit Park Shopping Centre,Neighbourhood       ,146.7989044,-19.27946091,Northern                                ,Townsville City,"124 Charters Towers Road, Hermit Park QLD 4812",Hermit Park,QLD,4812      ,1999,1999,"3,934"
High Street Shopping Centre,Neighbourhood       ,151.9782867,-27.58586121,Darling Downs                           ,Toowoomba,"Cnr High & Meibusch Street , Toowoomba QLD 4350",Toowoomba,QLD,4350      ,1974,1985 1995 2010,"5,924"
Highfields Village Shopping Centre,Neighbourhood       ,151.9444885,-27.45067787,Moreton                                 ,Moreton,"66 Highfields Road, Highfields QLD 4054",Highfields,QLD,4054      ,0,,"10,314"
Hinkler Central,Sub Regional        ,152.3470001,-24.86640167,Wide Bay-Burnett                        ,Bundaberg,"16 Maryborough Street, Bundaberg QLD 4670",Bundaberg,QLD,4670      ,1978,1988 2006,"20,769"
Holmview Central,Neighbourhood       ,153.1614685,-27.71134567,Brisbane                                ,Logan City,"302 - 318 Logan River Road, Waterford QLD 4133",Waterford,QLD,4133      ,2011,,"10,198"
Home Central Kawana,Bulky Goods         ,153.1191711,-26.73676109,Moreton                                 ,Sunshine Coast,"566 Kawana Way, Birtinya QLD 4575",Birtinya,QLD,4575      ,2006,,"31,859"
Homemaker City Cannon Hill,Bulky Goods         ,153.0966949,-27.47277641,Brisbane                                ,Brisbane City,"1881 Creek Road, Cannon Hill QLD 4170",Cannon Hill,QLD,4170      ,2000,2001,"8,627"
Homemaker The Valley,Bulky Goods         ,153.0409241,-27.4499855,Brisbane                                ,Brisbane City,"Cnr Ann & Wickham Streets, Fortitude Valley QLD 4006",Fortitude Valley,QLD,4006      ,2003,,"38,244"
Homezone Windsor,Sub Regional        ,153.0306396,-27.43778801,Brisbane                                ,Brisbane City,"142 Newmarket Road, Windsor QLD 4030",Windsor,QLD,4030      ,2001,,"16,681"
Hooper Centre Shopping Village,Neighbourhood       ,151.9564056,-27.56670761,Darling Downs                           ,Darling Downs,"187 Hume Streets, Toowoomba QLD 4350",Toowoomba,QLD,4350      ,1980,1999,"5,481"
Hope Island Shopping Centre,Neighbourhood       ,153.3504028,-27.86833763,Moreton                                 ,Gold Coast City Part B,"10 Santa Barbara Road, Hope Island QLD 4212",Hope Island,QLD,4212      ,2001,2010,"5,546"
Hyperdome Home Centre,Bulky Goods         ,153.17453,-27.66418266,Brisbane                                ,Logan City,"Cnr Pacific Highway & Bryants Road, Loganholme QLD 4129",Loganholme,QLD,4129      ,1989,,"18,177"
Hyperdome Shopping Centre (QLD),Major Regional      ,153.1711578,-27.65902519,Brisbane                                ,Logan City,"Cnr Pacific Highway & Bryants Road, Loganholme QLD 4129",Loganholme,QLD,4129      ,1989,1997 1998 2004 2005 2008 2015,"79,624"
Inala Plaza Shopping Centre,Sub Regional        ,152.973877,-27.59868813,Brisbane                                ,Brisbane City,"156 Inala Avenue, Inala QLD 4077",Inala,QLD,4077      ,1984,2000,"17,823"
Indooroopilly Central,Bulky Goods         ,152.9741669,-27.49780846,Brisbane                                ,Brisbane City,"34 Coonan Street, Indooroopilly QLD 4068",Indooroopilly,QLD,4068      ,1991,1994 2003,"19,767"
Indooroopilly Junction,Neighbourhood       ,152.97612,-27.50115204,Brisbane                                ,Brisbane City,"96-112 Coonan Street, Indooroopilly QLD 4068",Indooroopilly,QLD,4068      ,0,,"4,459"
Indooroopilly Shopping Centre,Super Regional      ,152.9728851,-27.49908447,Brisbane                                ,Brisbane City,"322 Moggill Road, Indooroopilly QLD 4068",Indooroopilly,QLD,4068      ,1970,1981 1990 1995 1998 2014,"115,738"
Ipswich Homebase,Bulky Goods         ,152.7480316,-27.61951256,Brisbane                                ,Ipswich City,"339 Brisbane Street, Ipswich QLD 4305",Ipswich,QLD,4305      ,2009,,"12,903"
Ipswich Riverlink Shopping Centre,Major Regional      ,152.7596741,-27.60830688,Brisbane                                ,Ipswich City,"2 The Terrace , North Ipswich QLD 4305",North Ipswich,QLD,4305      ,2007,2010,"61,963"
Jimboomba Junction,Neighbourhood       ,153.026947,-27.83177567,Brisbane                                ,Brisbane City,"671 Cusack Lane, Jimboomba QLD 4280",Jimboomba,QLD,4280      ,0,2008,"6,125"
Jimboomba Shopping Centre,Neighbourhood       ,153.0272522,-27.83077431,Brisbane                                ,Beaudesert Shire,"109 Brisbane Street, Jimboomba QLD 4280",Jimboomba,QLD,4280      ,1985,1988 1992 1997 ,"9,202"
Jindalee Home,Sub Regional        ,152.947525,-27.5311985,Brisbane                                ,Brisbane City,"34 Goggs Road, Jindalee QLD 4074",Jindalee,QLD,4074      ,1989,1998 2004,"26,453"
Kallangur Fair,Neighbourhood       ,153.0001678,-27.24987221,Brisbane                                ,Pine Rivers Shire,"1477 Anzac Avenue, Kallangur QLD 4503",Kallangur,QLD,4503      ,1957,1986 1991 1998 2000,"4,706"
Karalee Shopping Centre,Neighbourhood       ,152.7980499,-27.57030869,Brisbane                                ,Ipswich City,"39 Junction  Road, Karalee QLD 4306",Karalee,QLD,4306      ,0,,"5,795"
Kawana Shoppingworld,Regional            ,153.1298523,-26.70304108,Moreton                                 ,Sunshine Coast,"119 Point Cartwright Drive, Buddina QLD 4575",Buddina,QLD,4575      ,1979,1983 1994 2002 2014 2018,"38,403"
Kenmore Plaza,Neighbourhood       ,152.9484711,-27.50652695,Brisbane                                ,Brisbane City,"841 Moggill Road, Kenmore QLD 4069",Kenmore,QLD,4069      ,1986,1991 2003 2016,"8,759"
Kenmore Village Shopping Centre,Sub Regional        ,152.9389648,-27.50624466,Brisbane                                ,Brisbane City,"9 Brookfield Road, Kenmore QLD 4069",Kenmore,QLD,4069      ,1969,1978 1988 1999 2007,"14,679"
Kensington Village,Neighbourhood       ,152.9753571,-27.29749107,Brisbane                                ,Pine Rivers Shire,"8 Sovereign Avenue, Bray Park QLD 4500",Bray Park,QLD,4500      ,1979,2011,"6,111"
Keppel Bay Plaza,Neighbourhood       ,150.7410126,-23.12893867,Fitzroy                                 ,Rockhampton,"64-76 James Street, Yeppoon QLD 4703",Yeppoon,QLD,4703      ,1978,1994,"6,541"
Kessels Court,Bulky Goods         ,153.0710754,-27.56230927,Brisbane                                ,Brisbane City,"567 Kessels Road, Macgregor QLD 4109",Macgregor,QLD,4109      ,1988,,"9,252"
Kessels Storage,Bulky Goods         ,153.0726166,-27.56267929,Brisbane                                ,Brisbane City,"583-587 Kessels Road, Macgregor QLD 4109",Macgregor,QLD,4109      ,2000,,"9,815"
Kingaroy Shoppingworld,Sub Regional        ,151.8370361,-26.54115677,Wide Bay-Burnett                        ,Wide Bay-Burnett,"Cnr Youngman & Alford Streets, Kingaroy QLD 4610",Kingaroy,QLD,4610      ,1984,1993 2000 2002 2008,"13,005"
Kingaroy Town Centre,Neighbourhood       ,151.8396759,-26.54462242,Wide Bay-Burnett                        ,Wide Bay-Burnett,"8 Avoca Street Avoca Street, Kingaroy QLD 4610",Kingaroy,QLD,4610      ,2008,,"4,486"
Kippa-Ring Shopping Centre,Neighbourhood       ,153.0855865,-27.22593689,Brisbane                                ,Redcliffe City,"284 Anzac Avenue, Kippa Ring QLD 4021",Kippa Ring,QLD,4021      ,1974,1985 1993 1999 2012,"9,438"
Labrador Park Shopping Centre,Neighbourhood       ,153.3974152,-27.93599319,Moreton                                 ,Gold Coast City Part B,"100 Brisbane Road, Labrador QLD 4215",Labrador,QLD,4215      ,1981,1992 1999 2005 2012,"5,282"
Lilly Brook Shopping Village,Neighbourhood       ,152.9930267,-27.24201393,Brisbane                                ,Pine Rivers Shire,"980 Brickworks Road, Kallangur QLD 4503",Kallangur,QLD,4503      ,2004,,"7,290"
Little Stanley Street,Neighbourhood       ,153.0221863,-27.4784584,Brisbane                                ,Brisbane City,"153 Stanley Street, South Brisbane QLD 4101",South Brisbane,QLD,4101      ,2001,,"3,785"
Logan Central Plaza,Sub Regional        ,153.1138763,-27.64305305,Brisbane                                ,Logan City,"38-74 Wembley Road, Logan Central QLD 4114",Logan Central,QLD,4114      ,1978,1996 2006 2007 2017,"16,893"
Logan Super Centre,Bulky Goods         ,153.1348724,-27.63640976,Brisbane                                ,Logan City,"3525 Pacific Highway, Slacks Creek QLD 4127",Slacks Creek,QLD,4127      ,2007,,"27,201"
Loganholme Shopping Village,Neighbourhood       ,153.1752319,-27.66327477,Brisbane                                ,Logan City,"37-59 Bryants Road, Loganholme QLD 4129",Loganholme,QLD,4129      ,1980,1984 1997 2000 ,"4,811"
Lutwyche City,Sub Regional        ,153.0341187,-27.42258263,Brisbane                                ,Brisbane City,"543 Lutwyche Road, Lutwyche QLD 4030",Lutwyche,QLD,4030      ,1974,1990 2003 2008,"19,086"
MacArthur Central Shopping Centre,City Centre         ,153.0276642,-27.46814156,Brisbane                                ,Brisbane City,"255 Queen Street, Brisbane QLD 4000",Brisbane,QLD,4000      ,2002,,"15,227"
Macgregor Home,Bulky Goods         ,153.0701904,-27.56247139,Brisbane                                ,Brisbane City,"555 Kessels Road, MacGregor QLD 4109",MacGregor,QLD,4109      ,2001,2011,"13,891"
Manly Harbour Village - 7 Day Markets,Neighbourhood       ,153.1858063,-27.45387459,Brisbane                                ,Brisbane City,"Cnr Cambridge Parade & Stratton Terrace, Manly QLD 4179",Manly,QLD,4179      ,1960,1998,"1,557"
Mareeba Plaza,Neighbourhood       ,145.4233856,-16.99827957,Wide Bay-Burnett                        ,Bundaberg,"241 Byrnes Street, Mareeba QLD 4880",Mareeba,QLD,4880      ,1980,2001,"4,269"
Margate Village,Neighbourhood       ,153.1070709,-27.24485207,Brisbane                                ,Redcliffe City,"Cnr Oxley Avenue & Baynes Street, Margate QLD 4019",Margate,QLD,4019      ,1974,1992 2008,"4,892"
Marian Town Centre,Neighbourhood       ,148.9519653,-21.14673424,Mackay                                  ,Mackay City,"247 Anzac  Avenue, Mackay QLD 4740",Mackay,QLD,4740      ,0,,"6,721"
Marina Mirage Shopping Centre,Themed              ,153.4256287,-27.96205711,Moreton                                 ,Gold Coast City Part B,"74 Seaworld Drive, Main Beach QLD 4217",Main Beach,QLD,4217      ,1988,2010,"13,111"
Market Plaza,Neighbourhood       ,152.9486542,-27.10243607,Brisbane                                ,Caboolture Shire,"Morayfield Road, Morayfield QLD 4506",Morayfield,QLD,4506      ,1995,2002,"7,876"
Market Square (QLD),Neighbourhood       ,153.4150238,-28.07845306,Brisbane                                ,Gold Coast City Part A,"201 Varsity Parade, Varsity Lakes QLD 4226",Varsity Lakes,QLD,4226      ,2005,,"1,837"
Market Square Shopping Centre (QLD),Neighbourhood       ,153.0645142,-27.57251549,Brisbane                                ,Brisbane City,"Cnr Mains Road & McCullough Street, Sunnybank QLD 4109",Sunnybank,QLD,4109      ,1971,1976 1977 1980 1989  2003,"7,065"
MarketPlace Warner,Sub Regional        ,152.9532318,-27.29185486,Brisbane                                ,Pine Rivers Shire,"Corner Samsonvale & Old North Road, Warner QLD 4500",Warner,QLD,4500      ,2001,2014,"15,578"
Maroochydore Homemaker Centre,Bulky Goods         ,153.0457458,-26.39410973,Moreton                                 ,Sunshine Coast,"11 - 55 Maroochy Boulevard, Maroochydore QLD 4558",Maroochydore,QLD,4558      ,2012,,"37,263"
Marsden Park Shopping Centre,Neighbourhood       ,153.1155548,-27.67967415,Brisbane                                ,Logan City,"55-77 Chambers Flat Road, Marsden QLD 4132",Marsden,QLD,4132      ,1985,1987 2001,"7,635"
Maryborough Central Shopping Centre,Neighbourhood       ,152.7023468,-25.53904533,Wide Bay-Burnett                        ,Wide Bay-Burnett,"65-85 Bazaar Street, Maryborough QLD 4650",Maryborough,QLD,4650      ,1979,1992 1996 1998 2007 2008,"8,087"
Mayfair Village on Manly,Neighbourhood       ,153.1551971,-27.47498894,Brisbane                                ,Brisbane City,"11 Burnett Street, Manly West QLD 4179",Manly West,QLD,4179      ,2004,2007 2012,"6,298"
Merridown Shopping Village,Neighbourhood       ,153.359848,-28.04774094,Moreton                                 ,Gold Coast City Part B,"Cnr Gooding Drive & Jura Parade, Carrara QLD 4211",Carrara,QLD,4211      ,0,,"1,014"
Merthyr Village Shopping Centre,Neighbourhood       ,153.0468597,-27.46679497,Brisbane                                ,Brisbane City,"85 Merthyr Road, New Farm QLD 4005",New Farm,QLD,4005      ,1997,,"6,700"
Metro Market Shopping Centre,Neighbourhood       ,153.4002228,-27.93252182,Moreton                                 ,Gold Coast City Part B,"33 Hollywell Road, Biggera Waters QLD 4216",Biggera Waters,QLD,4216      ,1974,1985 2003,"6,985"
Miami Shopping Village,Neighbourhood       ,153.2522736,-28.07366753,Moreton                                 ,Gold Coast City Part B,"110 Mountain View Avenue, Miami QLD 4220",Miami,QLD,4220      ,0,,"1,579"
Milton Village,Neighbourhood       ,153.002594,-27.46896172,Brisbane                                ,Brisbane City,"12-36 Baroona Road, Milton QLD 4064",Milton,QLD,4064      ,1973,,"2,873"
Mission Beach Marketplace,Neighbourhood       ,146.0937347,-17.8990612,Far North                               ,Cairns City,"34-40 Dickinson Street, Wongaling Beach QLD 4852",Wongaling Beach,QLD,4852      ,2008,,"3,768"
Mitchelton Homemakers Centre,Bulky Goods         ,152.9780579,-27.41032982,Brisbane                                ,Brisbane City,"177 Osbourne Road, Mitchelton QLD 4133",Mitchelton,QLD,4133      ,0,,"3,332"
Monier Village,Neighbourhood       ,152.9501495,-27.55854988,Brisbane                                ,Brisbane City,"166 Monier Road, Darra QLD 4076",Darra,QLD,4076      ,2004,,"5,595"
Mooloolaba Central,Neighbourhood       ,153.1168518,-26.67904854,Moreton                                 ,Sunshine Coast,"Venning Street, Mooloolaba QLD 4557",Mooloolaba,QLD,4557      ,1999,,"2,558"
Moranbah Fair,Neighbourhood       ,148.0439758,-22.00067711,Mackay                                  ,Mackay City,"St Francis Drive, Moranbah QLD 4774",Moranbah,QLD,4774      ,1987,1988 1995 1998 ,"7,456"
Morayfield Shopping Centre,Major Regional      ,152.9481201,-27.10595322,Brisbane                                ,Caboolture Shire,"171 Morayfield Road, Morayfield QLD 4506",Morayfield,QLD,4506      ,1985,1997 2005,"58,353"
Morayfield Supa Centre,Bulky Goods         ,152.9520264,-27.11725235,Brisbane                                ,Caboolture Shire,"312-344 Morayfield Road, Morayfield QLD 4506",Morayfield,QLD,4506      ,2004,2013,"29,518"
Morningside Central Shopping Centre,Neighbourhood       ,153.0796356,-27.46652031,Brisbane                                ,Brisbane City,"25 Junction Road, Morningside QLD 4170",Morningside,QLD,4170      ,1969,1982 2000,"5,452"
Morningside Plaza,Neighbourhood       ,153.0792694,-27.46515656,Brisbane                                ,Brisbane City,"38 Junction Road, Morningside QLD 4170",Morningside,QLD,4170      ,0,,"27,763"
Mount Pleasant Centre,Sub Regional        ,149.1581268,-21.11918259,Mackay                                  ,Mackay City,"Cnr Bucasia & Philip Street, North Mackay QLD 4740",North Mackay,QLD,4740      ,1980,1997,"22,517"
Mountview Market Place,Neighbourhood       ,146.7438202,-19.29286194,Northern                                ,Townsville City,"32 Bamford Lane, Kirwan QLD 4817",Kirwan,QLD,4817      ,0,,"3,383"
Mowbray Shopping Centre,Neighbourhood       ,153.0426483,-27.47949028,Brisbane                                ,Brisbane City,"33 Lytton Road, East Brisbane QLD 4169",East Brisbane,QLD,4169      ,2005,,"3,015"
Mt Gravatt Plaza,Sub Regional        ,153.0813141,-27.53940773,Brisbane                                ,Brisbane City,"Cnr Creek & Logan Roads, Mount Gravatt QLD 4122",Mount Gravatt,QLD,4122      ,1981,1995 2006 2007 2016,"12,697"
Mt Ommaney Centre,Major Regional      ,152.9384155,-27.54915237,Brisbane                                ,Brisbane City,"171 Dandenong Road, Mount Ommaney QLD 4074",Mount Ommaney,QLD,4074      ,1979,1995 2008 2009 2010 2011,"56,611"
Murrumba Downs Shopping Centre,Neighbourhood       ,153.0151215,-27.27110291,Moreton                                 ,Moreton,"Cnr Goodrich & Doules Rocks Road, Murrumba Downs QLD 4503",Murrumba Downs,QLD,4503      ,2008,,"6,534"
My Centre - Nerang,Neighbourhood       ,153.3383942,-27.99724197,Moreton                                 ,Gold Coast City Part B,"57 Station Street, Nerang QLD 4211",Nerang,QLD,4211      ,1984,1993 2006,"9,964"
My Jindalee Village,Neighbourhood       ,152.9418488,-27.53230476,Brisbane                                ,Brisbane City,"62 Looranah Street, Jindalee QLD 4074",Jindalee,QLD,4074      ,1960,1968 1972 1978 1998,"3,161"
Nambour Central Mall,Neighbourhood       ,152.9594116,-26.62594795,Moreton                                 ,Sunshine Coast,"25 Lowe Street, Nambour QLD 4560",Nambour,QLD,4560      ,0,2005,"2,455"
Nambour Mill Village,Neighbourhood       ,152.9576263,-26.62683868,Moreton                                 ,Sunshine Coast,"9 Mill Street, Nambour Mill QLD 4560",Nambour Mill,QLD,4560      ,0,,"6,648"
Nambour Plaza,Sub Regional        ,152.9611664,-26.62602425,Moreton                                 ,Sunshine Coast,"Ann Street, Nambour QLD 4560",Nambour,QLD,4560      ,0,2004,"15,165"
Narangba Shopping Village,Neighbourhood       ,152.9589233,-27.20272827,Moreton                                 ,Moreton,"32-36 Main Street, Narangba QLD 4504",Narangba,QLD,4504      ,0,,"1,819"
Narangba Valley Shopping Centre,Neighbourhood       ,152.9388123,-27.17303276,Brisbane                                ,Caboolture Shire,"Young Road, Narangba QLD 4504",Narangba,QLD,4504      ,2002,,"4,416"
Nerang Fair Shopping Centre,Neighbourhood       ,153.3321381,-27.99342155,Moreton                                 ,Gold Coast City Part B,"74 Beaudesert Nerang Road, Nerang QLD 4211",Nerang,QLD,4211      ,1989,,"4,920"
Nerang Mall Shopping Centre,Neighbourhood       ,153.3385468,-27.99997139,Moreton                                 ,Gold Coast City Part B,"Cnr Gilston & New Streets, Nerang QLD 4211",Nerang,QLD,4211      ,1994,1995 2000 2014,"8,179"
Newmarket Village,Sub Regional        ,153.008194,-27.43723679,Brisbane                                ,Brisbane City,"400 Newmarket Road, Newmarket QLD 4051",Newmarket,QLD,4051      ,2005,,"17,093"
Niecon Plaza & Niecon Tower,Themed              ,153.4317474,-28.02886963,Moreton                                 ,Gold Coast City Part B,"17-19 Victoria Avenue, Broadbeach QLD 4218",Broadbeach,QLD,4218      ,1990,,"8,571"
Nineteenth Avenue Shopping Centre,Neighbourhood       ,153.4524689,-28.12041283,Moreton                                 ,Gold Coast City Part B,"Cnr Nineteenth Avenue & Angelica Street, Elanora QLD 4221",Elanora,QLD,4221      ,1983,2002,"5,535"
Noosa Civic Shopping Centre,Sub Regional        ,153.0490112,-26.4152813,Moreton                                 ,Sunshine Coast,"28 Eenie Creek Road, Noosaville QLD 4566",Noosaville,QLD,4566      ,2006,,"22,611"
Noosa Fair Shopping Centre,Neighbourhood       ,153.0896606,-26.39842033,Moreton                                 ,Sunshine Coast,"3 Lanyana Way, Noosa Heads QLD 4567",Noosa Heads,QLD,4567      ,1988,1997 2003 2013,"6,937"
Noosa Junction Plaza,Neighbourhood       ,153.0892334,-26.39679718,Moreton                                 ,Sunshine Coast,"81 Noosa Drive, Noosa Heads QLD 4567",Noosa Heads,QLD,4567      ,1987,1997 2009,"5,094"
Noosa Village Shopping Centre,Neighbourhood       ,153.0651703,-26.40084076,Moreton                                 ,Sunshine Coast,"Cnr Gibson Road & Mary Street, Noosaville QLD 4566",Noosaville,QLD,4566      ,1995,2002,"4,680"
North Shore Shopping Village,Neighbourhood       ,153.0834045,-26.61442947,Wide Bay-Burnett                        ,Hervey Bay City,"722-728 David Low Way, Pacific Paradise QLD 4564",Pacific Paradise,QLD,4564      ,2003,,"4,077"
Northern Beaches Central,Neighbourhood       ,149.1570435,-21.06633186,Mackay                                  ,Mackay City,"10 Mackay-Bucasia Road, Rural View QLD 4740",Rural View,QLD,4740      ,2005,2011,"11,548"
Northlakes Stage 1,Bulky Goods         ,153.0104828,-27.23825836,Brisbane                                ,Pine Rivers Shire,"111 Northlakes Drive, Northlakes QLD 4509",Northlakes,QLD,4509      ,2015,,"10,500"
Northlakes Stage 2,Bulky Goods         ,153.0118713,-27.23926926,Brisbane                                ,Pine Rivers Shire,"111 Northlakes Drive, Northlakes QLD 4509",Northlakes,QLD,4509      ,2017,,"11,551"
Northpoint Retail - Mackay,Bulky Goods         ,149.1617737,-21.12912941,Mackay                                  ,Mackay City,"6-10 Windmill Crossing, North Mackay QLD 4740",North Mackay,QLD,4740      ,2002,2005,"11,427"
Northside Plaza,Neighbourhood       ,150.523941,-23.35902786,Fitzroy                                 ,Rockhampton,"222-228 Musgrave Street, North Rockhampton QLD 4701",North Rockhampton,QLD,4701      ,1969,2006,"6,497"
Northward Shopping Centre,Neighbourhood       ,146.8135223,-19.25158691,Northern                                ,Townsville City,"Cnr Eyre & Gregory Streets, Northward QLD 4810",Northward,QLD,4810      ,0,,"5,726"
Northway Plaza,Neighbourhood       ,152.3437653,-24.85538864,Wide Bay-Burnett                        ,Bundaberg,"22-23 Queen Street, Bundaberg North QLD 4670",Bundaberg North,QLD,4670      ,2008,,"4,828"
Northwest Plaza,Neighbourhood       ,152.9969025,-27.3942585,Brisbane                                ,Brisbane City,"97 Flockton Street, Everton Park QLD 4053",Everton Park,QLD,4053      ,1985,1995,"9,489"
Ooralea Shopping Centre Mackay,Neighbourhood       ,149.090744,-21.10270309,Mackay                                  ,Mackay City,"67-79 Boundary  Road, Mackay QLD 4740",Mackay,QLD,4740      ,2012,,"5,502"
Orchid Plaza,Neighbourhood       ,145.7772217,-16.92241096,Far North                               ,Cairns City,"58 Lake Street, Cairns QLD 4870",Cairns,QLD,4870      ,1989,1999,"3,831"
Orion Springfield,Major Regional      ,152.9026642,-27.67755508,Brisbane                                ,Ipswich City,"1 Main Street, Springfield Lakes QLD 4300",Springfield Lakes,QLD,4300      ,2007,2015,"69,476"
Oxenford Village,Neighbourhood       ,153.3119659,-27.88750458,Moreton                                 ,Gold Coast City Part B,"2 Cottonwood Place, Oxenford QLD 4210",Oxenford,QLD,4210      ,2001,,"5,815"
Pacific Fair Shopping Centre,Super Regional      ,153.4273682,-28.03643417,Moreton                                 ,Gold Coast City Part B,"2-30 Hooker Boulevard, Broadbeach QLD 4218",Broadbeach,QLD,4218      ,1977,1982 1989 1990 1991 1992 1996 1998 2002 2014-2016,"150,355"
Paddington Central Shopping Centre,Neighbourhood       ,152.9979095,-27.4587059,Brisbane                                ,Brisbane City,"107 Latrobe Terrace, Paddington QLD 4507",Paddington,QLD,4507      ,1988,1996 2003,"5,717"
Palm Court Shopping Centre,Themed              ,145.7750549,-16.92175865,Far North                               ,Cairns City,"34-42 Lake Street, Cairns QLD 4870",Cairns,QLD,4870      ,1988,,"2,633"
Palmdale Shopping Centre,Neighbourhood       ,153.0827179,-27.56060028,Brisbane                                ,Brisbane City,"2120 Logan Road, Upper Mount Gravatt QLD 4122",Upper Mount Gravatt,QLD,4122      ,1978,1996 1999,"5,454"
Paradise Centre,City Centre         ,153.4294281,-28.00252914,Moreton                                 ,Gold Coast City Part B,"Cavill Avenue, Surfers Paradise QLD 4217",Surfers Paradise,QLD,4217      ,1984,1981 1982 1984 1985 1994 2001,"23,132"
Park Ridge Town Centre,Neighbourhood       ,153.0393524,-27.69687653,Brisbane                                ,Logan City,"Cnr Park Ridge Road & Mount Lindesay Highway, Park Ridge QLD 4125",Park Ridge,QLD,4125      ,0,1999,"11,794"
Park Village Shopping Centre,Neighbourhood       ,152.9234009,-27.55512428,Brisbane                                ,Brisbane City,"Horizon Dr & Riverhills Road , Middle Park QLD 4074",Middle Park,QLD,4074      ,1980,2007,"6,385"
Parkinson Plaza Shopping Village,Neighbourhood       ,153.0333252,-27.62227058,Brisbane                                ,Brisbane City,"441 Algester Road, Parkinson QLD 4115",Parkinson,QLD,4115      ,0,,"4,745"
Parklands Plaza,Neighbourhood       ,153.1091309,-27.632761,Brisbane                                ,Logan City,"99-101 Ewing Road, Logan Central QLD 4114",Logan Central,QLD,4114      ,1970,1987 1999 2004,"3,925"
Parkside Plaza Shopping Centre,Neighbourhood       ,146.7412872,-19.30400276,Northern                                ,Thuringowa City,"148 Bamford Lane, Kirwan QLD 4817",Kirwan,QLD,4817      ,0,2005,"4,706"
Pavilions Palm Beach,Neighbourhood       ,153.2821198,-28.07209396,Moreton                                 ,Gold Coast City Part B,"10 Fifth Avenue, Palm Beach QLD 4221",Palm Beach,QLD,4221      ,2008,,"3,295"
Pelican Waters Shopping Village,Neighbourhood       ,153.1087799,-26.83259392,Moreton                                 ,Sunshine Coast,"Pelican Waters Boulevard, Pelican Waters QLD 4551",Pelican Waters,QLD,4551      ,2003,2005,"6,991"
Peninsula Fair,Sub Regional        ,153.0868683,-27.22599983,Brisbane                                ,Redcliffe City,"272 Anzac Avenue, Kippa Ring QLD 4021",Kippa Ring,QLD,4021      ,1975,1991 1998,"30,924"
Peregian Springs Shopping Centre,Neighbourhood       ,153.0783844,-26.49960518,Moreton                                 ,Gold Coast City Part B,"1 Ridgeview Drive, Peregian Springs QLD 4573",Peregian Springs,QLD,4573      ,2008,,"4,750"
Petrie Village Shopping Centre,Neighbourhood       ,152.9758148,-27.26952744,Brisbane                                ,Pine Rivers Shire,"Dayboro Road, Petrie QLD 4502",Petrie,QLD,4502      ,1983,2004,"3,790"
Pialba Place Shopping Centre,Sub Regional        ,152.8401642,-25.28275108,Wide Bay-Burnett                        ,Hervey Bay City,"Cnr Hunter Street & Old Maryborough Road, Pialba QLD 4655",Pialba,QLD,4655      ,1987,,"15,532"
Pinelands Plaza,Neighbourhood       ,153.0610199,-27.58863449,Brisbane                                ,Brisbane City,"633 Beenleigh Roads, Sunnybank QLD 4109",Sunnybank,QLD,4109      ,1976,1998,"5,897"
Plainland Plaza,Neighbourhood       ,152.4219971,-27.56222916,Darling Downs                           ,Toowoomba,"3 Gehrke Road, Plainland QLD 4341",Plainland,QLD,4341      ,0,,"4,499"
Plaza Parade,Neighbourhood       ,153.0864258,-26.65665054,Moreton                                 ,Sunshine Coast,"Plaza Parade, Maroochydore QLD 4558",Maroochydore,QLD,4558      ,2002,,"4,864"
Poinciana Place,Neighbourhood       ,153.0381775,-26.3910408,Moreton                                 ,Sunshine Coast,"94 Poinciana Avenue, Tewantin QLD 4565",Tewantin,QLD,4565      ,0,2006,"3,103"
Port Village,Neighbourhood       ,145.4628448,-16.48201942,Northern                                ,Townsville City,"11-17 Macrossan Street, Port Douglas QLD 4871",Port Douglas,QLD,4871      ,1999,2007 2010,"6,358"
Post Office Square,City Centre         ,153.0274811,-27.46729851,Brisbane                                ,Brisbane City,"280 Queen Street, Brisbane QLD 4000",Brisbane,QLD,4000      ,1983,1999,"1,750"
Q + A,City Centre         ,153.0131073,-27.28105927,Brisbane                                ,Brisbane City,"141 Queen Street, Brisbane QLD 4000",Brisbane,QLD,4000      ,1969,1997 2009,"32,209"
Q Super Centre,Sub Regional        ,153.4076691,-28.04673576,Moreton                                 ,Gold Coast City Part B,"Cnr Markeri & Bermuda Streets, Mermaid Waters QLD 4218",Mermaid Waters,QLD,4218      ,1993,1996 2005 2010 2013 2014,"21,687"
Queen Adelaide Building,City Centre         ,153.0242767,-27.47013092,Brisbane                                ,Brisbane City,"90-112 Queen Street Mall, Brisbane QLD 4000",Brisbane,QLD,4000      ,1996,2004,"6,714"
Queens Plaza,City Centre         ,153.026886,-27.46844482,Brisbane                                ,Brisbane City,"226 Queen Street, Brisbane QLD 4000",Brisbane,QLD,4000      ,2005,2008,"39,066"
Range Shopping Centre,Neighbourhood       ,151.9759064,-27.57149315,Darling Downs                           ,Darling Downs,"11 James Street, Toowoomba QLD 4350",Toowoomba,QLD,4350      ,1960,1982 1999,"6,125"
Red Edge Shopping Centre,Neighbourhood       ,153.2974854,-27.62847328,Brisbane                                ,Redland Shire,"30-32 Cypress Street, Redland Bay  QLD 4165",Redland Bay ,QLD,4165      ,0,,"2,688"
Red Hill Homemaker Centre,Bulky Goods         ,150.5215454,-13.34245586,Fitzroy                                 ,Rockhampton,"404-434  Yaamba Road, Norman Gardens QLD 4701",Norman Gardens,QLD,4701      ,2004,2007,"16,278"
Redbank Plaza,Regional            ,152.8679962,-27.6052227,Brisbane                                ,Ipswich City,"1 Collingwood Park Drive, Redbank QLD 4301",Redbank,QLD,4301      ,1985,1995 1996 1999 2005 2012,"41,216"
Rising Sun Shopping Centre,Neighbourhood       ,146.7943878,-19.29317474,Northern                                ,Townsville City,"10 Ross River Road, Mundingburra QLD 4812",Mundingburra,QLD,4812      ,1985,,"3,743"
Riverview Marketplace,Neighbourhood       ,146.7381134,-19.31787491,Northern                                ,Thuringowa City,"228-244 Riverside Boulevard, Douglas QLD 4818",Douglas,QLD,4818      ,2011,,"4,828"
Robina Town Centre,Super Regional      ,153.3860321,-28.07879257,Moreton                                 ,Gold Coast City Part B,"Robina Town Centre Drive, Robina Town Centre QLD 4230",Robina Town Centre,QLD,4230      ,1996,2002 2003 2008 2009 2010 2017 2018,"134,784"
Robinson Road Marketplace,Neighbourhood       ,153.0243988,-27.36477852,Brisbane                                ,Brisbane City,"605 Robinson Road, Aspley QLD 4034",Aspley,QLD,4034      ,1972,2008 2018,"12,823"
Rochedale Shopping Village,Neighbourhood       ,153.1241455,-27.59634209,Brisbane                                ,Brisbane City,"549 Underwood Road, Rochedale QLD 4123",Rochedale,QLD,4123      ,1974,1999 2005,"5,774"
Rode Shopping Centre,Neighbourhood       ,153.0115051,-27.39218712,Brisbane                                ,Brisbane City,"Cnr Rode & Appleby Roads, Chermside West QLD 4032",Chermside West,QLD,4032      ,1966,1994 1997,"4,299"
Rose City Shoppingworld,Sub Regional        ,152.0321655,-28.21558571,Darling Downs                           ,Darling Downs,"81 Palmerin Street, Warwick QLD 4370",Warwick,QLD,4370      ,1984,1996 1998 2018,"20,404"
Runaway Bay Centre,Regional            ,153.4006195,-27.91312027,Moreton                                 ,Gold Coast City Part B,"10-12 Lae Drive, Runaway Bay QLD 4216",Runaway Bay,QLD,4216      ,1974,1988 1995 2011,"42,997"
Russell Island Shopping Centre,Neighbourhood       ,153.3813934,-27.64848518,Brisbane                                ,Redland Shire,"29-39 High Street, Russell Island QLD 4184",Russell Island,QLD,4184      ,2008,,"1,980"
Sanctuary Cove Marine Shopping Village,Themed              ,153.3514557,-27.86202431,Moreton                                 ,Gold Coast City Part B,"Masthead Way, Sanctuary Cove QLD 4212",Sanctuary Cove,QLD,4212      ,1987,2002 2017 2018,"13,587"
Sarina Beach Road Shopping Centre,Neighbourhood       ,149.2174377,-21.41643715,Mackay                                  ,Mackay City,"13 Sarina Beach Road, Sarina QLD 4737",Sarina,QLD,4737      ,1998,2005,"6,326"
Sherwood Central,Neighbourhood       ,152.9811096,-27.53239632,Brisbane                                ,Brisbane City,"686 Sherwood Road, Sherwood QLD 4075",Sherwood,QLD,4075      ,0,,"3,338"
Shore Street West Shopping Centre,Neighbourhood       ,153.2522736,-27.52344704,Brisbane                                ,Logan City,"Shore Street West, Cleveland QLD 4163",Cleveland,QLD,4163      ,0,,"2,526"
Showgrounds Shopping Centre,Neighbourhood       ,145.7613525,-16.92849922,Far North                               ,Cairns City,"157 Mulgrave Road, Bungalow QLD 4870",Bungalow,QLD,4870      ,1988,,"8,070"
Silkstone Village,Neighbourhood       ,152.7805328,-27.620821,Brisbane                                ,Ipswich City,"Cnr  Blackstone & Grange  Road, Silkstone QLD 4305",Silkstone,QLD,4305      ,2017,2017,"4,889"
Smithfield Centre,Sub Regional        ,145.6914215,-16.83819389,Far North                               ,Cairns City,"Cnr Kennedy & Captain Cook Highway, Smithfield QLD 4878",Smithfield,QLD,4878      ,1986,1996 2006 2017,"35,394"
Sorrento Shopping Village,Neighbourhood       ,153.4109497,-28.01442909,Moreton                                 ,Gold Coast City Part B,"Bundall Road, Sorrento QLD 4217",Sorrento,QLD,4217      ,0,,"1,858"
Southgate Shopping Centre (QLD),Neighbourhood       ,153.0940399,-27.46787071,Brisbane                                ,Brisbane City,"23-29 Southgate Avenue, Cannon Hill QLD 4170",Cannon Hill,QLD,4170      ,0,,"1,682"
Southport Park,Sub Regional        ,153.4104309,-27.98568344,Moreton                                 ,Gold Coast City Part B,"Cnr Ferry & Benowa Roads, Southport QLD 4215",Southport,QLD,4215      ,1984,1990 1999 2006 2017,"19,289"
Southtown Shopping Centre,Neighbourhood       ,151.9639435,-27.58045387,Darling Downs                           ,Toowoomba,"140 South Street, Toowoomba QLD 4350",Toowoomba,QLD,4350      ,1956,1966 1982 1992 1997,"2,567"
Spotlight Centre Ashmore,Bulky Goods         ,153.3786469,-27.97756767,Moreton                                 ,Gold Coast City Part B,"345-367 Nerang Road, Ashmore QLD 4214",Ashmore,QLD,4214      ,2002,,"15,217"
Spotlight Centre Townsville,Bulky Goods         ,146.7606201,-19.27398872,Northern                                ,Townsville City,"364-374 Bayswater Road, Garbutt QLD 4810",Garbutt,QLD,4810      ,2006,,"14,416"
Springwood Shopping Mall,Sub Regional        ,153.1263123,-27.61336327,Brisbane                                ,Logan City,"Cnr Rochedale & Fitzgerald Roads, Springwood QLD 4127",Springwood,QLD,4127      ,1986,1986 1992 2002 ,"15,319"
Stafford City Shopping Centre,Sub Regional        ,153.0125885,-27.41151047,Brisbane                                ,Brisbane City,"400 Stafford Road, Stafford QLD 4053",Stafford,QLD,4053      ,1984,1985 1996 1997 2001,"27,499"
Stanthorpe Plaza Shopping Centre,Neighbourhood       ,151.9353485,-28.65402985,Darling Downs                           ,Darling Downs,"Cnr High & Lock Streets, Stanthorpe QLD 4380",Stanthorpe,QLD,4380      ,1981,1997,"3,473"
Station Square,Sub Regional        ,152.6987152,-25.53953362,Wide Bay-Burnett                        ,Wide Bay-Burnett,"142 Lennox Street, Maryborough QLD 4650",Maryborough,QLD,4650      ,2000,,"19,800"
Stockland Benowa Gardens,Neighbourhood       ,153.3920441,-28.00938416,Moreton                                 ,Gold Coast City Part B,"Cnr Ashmore & Benowa Roads, Benowa QLD 4217",Benowa,QLD,4217      ,1992,1992 1996 1998 ,"6,141"
Stockland Bundaberg,Sub Regional        ,152.3205566,-24.88856316,Wide Bay-Burnett                        ,Wide Bay-Burnett,"113 - 119 Takalvan Street, Bundaberg QLD 4670",Bundaberg,QLD,4670      ,1978,,"23,251"
Stockland Burleigh Central,Bulky Goods         ,153.4394531,-28.09933472,Moreton                                 ,Gold Coast City Part B,"177 Reedy Creek Road, Burleigh QLD 4220",Burleigh,QLD,4220      ,1998,,"7,913"
Stockland Burleigh Heads,Sub Regional        ,153.4415436,-28.09738159,Moreton                                 ,Gold Coast City Part B,"149 West Burleigh Road, Burleigh QLD 4220",Burleigh,QLD,4220      ,1981,1992 1996 1998 2005,"30,635"
Stockland Cairns,Regional            ,145.7401428,-16.94391632,Far North                               ,Cairns City,"537 Mulgrave Road, Earlville QLD 4870",Earlville,QLD,4870      ,1980,1993 1994 1995 1996 2001 2009,"47,053"
Stockland Caloundra,Sub Regional        ,153.1244965,-26.80369759,Moreton                                 ,Sunshine Coast,"47 Bowman Road, Caloundra QLD 4551",Caloundra,QLD,4551      ,1978,1992 1995 1998 2000 2011-2012,"17,533"
Stockland Cleveland,Sub Regional        ,153.2689514,-27.52535057,Brisbane                                ,Redland Shire,"91 Middle Street, Cleveland QLD 4163",Cleveland,QLD,4163      ,1984,1997,"15,559"
Stockland Gladstone,Sub Regional        ,151.241394,-23.86945534,Fitzroy                                 ,Gladstone,"Cnr Philip Street & Dawson Highway, Gladstone QLD 4680",Gladstone,QLD,4680      ,1977,1982 1984 1989 1996,"28,667"
Stockland Hervey Bay,Regional            ,152.8349304,-25.29044533,Wide Bay-Burnett                        ,Hervey Bay City,"6 Central Avenue, Pialba QLD 4655",Pialba,QLD,4655      ,1995,2014,"33,895"
Stockland Kensington,Neighbourhood       ,152.3186035,-24.89100838,Wide Bay-Burnett                        ,Wide Bay-Burnett,"130A Takalvan Street, Bundaberg QLD 4670",Bundaberg,QLD,4670      ,2017,,"6,003"
Stockland Northshore,Neighbourhood       ,146.6972656,-19.25567436,Northern                                ,Townsville City,"20-38 Main Street, Burdell QLD 4818",Burdell,QLD,4818      ,2011,,"6,116"
Stockland Pacific Pines,Neighbourhood       ,153.3230896,-27.94508934,Wide Bay-Burnett                        ,Hervey Bay City,"6 Hotham Drive, Pacific Pines QLD 4217",Pacific Pines,QLD,4217      ,2003,,"6,009"
Stockland Rockhampton,Major Regional      ,150.5226898,-23.35466957,Fitzroy                                 ,Rockhampton,"120-331 Yaamba Road, Rockhampton QLD 4700",Rockhampton,QLD,4700      ,1985,1988 1995 2001 2009 2010,"62,393"
Stockland South,Neighbourhood       ,153.1222076,-26.80558205,Moreton                                 ,Sunshine Coast,"24 Bowman Road, Caloundra QLD 4551",Caloundra,QLD,4551      ,2008,,"4,760"
Stockland Townsville,Major Regional      ,146.7624817,-19.29895973,Northern                                ,Townsville City,"310-334 & 339-355 Ross River Road, Aitkenvale QLD 4814",Aitkenvale,QLD,4814      ,1970,1980 1984 1988 1993 2001 2012,"59,551"
Stones Corner Village,Neighbourhood       ,153.0447235,-27.4996891,Brisbane                                ,Brisbane City,"405 Logan Road, Stones Corner QLD 4120",Stones Corner,QLD,4120      ,1987,2012,"3,392"
Strathpine Centre,Regional            ,152.9909058,-27.30713272,Brisbane                                ,Brisbane City,"295 Gympie Road, Strathpine QLD 4500",Strathpine,QLD,4500      ,1983,1986 1987 1989 1998 2007,"43,868"
Sunny Park Shopping Centre,Sub Regional        ,153.0648041,-27.57154655,Brisbane                                ,Brisbane City,"342 McCullough Street, Sunnybank QLD 4109",Sunnybank,QLD,4109      ,1983,1994 1999 2006,"11,908"
Sunnybank Hills Shoppingtown,Sub Regional        ,153.0553741,-27.61050224,Brisbane                                ,Brisbane City,"Cnr Compton & Calam Roads, Sunnybank Hills QLD 4109",Sunnybank Hills,QLD,4109      ,1986,1987 1994 1998 2008,"34,761"
Sunnybank Plaza Shopping Centre,Sub Regional        ,153.0626678,-27.5703373,Brisbane                                ,Brisbane City,"358 Mains Rd, Sunnybank QLD 4109",Sunnybank,QLD,4109      ,1975,1989 1995 2002 ,"34,132"
Sunshine Coast Home,Bulky Goods         ,153.0878906,-26.6531868,Moreton                                 ,Sunshine Coast,"100 Maroochydore Road, Maroochydore QLD 4558",Maroochydore,QLD,4558      ,2002,,"27,519"
Sunshine Plaza (QLD),Major Regional      ,153.0893555,-26.65520859,Moreton                                 ,Sunshine Coast,"166-168 Horton Parade, Maroochydore QLD 4558",Maroochydore,QLD,4558      ,1980,1993 1994 1996 1999 2002,"73,440"
Sydney Street Markets,Neighbourhood       ,149.1875,-21.1431942,Mackay                                  ,Mackay City,"31 Gordon Street, Mackay QLD 4740",Mackay,QLD,4740      ,2006,2015,"5,780"
Taigum Square,Sub Regional        ,153.0474091,-27.35059547,Brisbane                                ,Brisbane City,"Cnr Beams & Church Roads, Taigum QLD 4018",Taigum,QLD,4018      ,1982,2001,"23,079"
Taigum Village Shopping Centre,Neighbourhood       ,153.0427246,-27.34226608,Brisbane                                ,Brisbane City,"320 Roghan Road, Taigum QLD 4018",Taigum,QLD,4018      ,0,,"4,340"
The Arcade - Rockhampton,City Centre         ,150.5127258,-23.3777504,Fitzroy                                 ,Rockhampton,"East Street, Rockhampton QLD 4700",Rockhampton,QLD,4700      ,1987,,"1,281"
The Avenues Plaza,Neighbourhood       ,146.7267151,-19.30070877,Northern                                ,Thuringowa City,"85 Burnda Street, Kirwan QLD 4817",Kirwan,QLD,4817      ,2007,,"4,164"
The Centre @ Springwood,Bulky Goods         ,153.1217041,-27.61357689,Brisbane                                ,Logan City,"1-15 Lexington Road, Springwood QLD 4119",Springwood,QLD,4119      ,1993,,"10,279"
The Gap Village Shopping Centre,Neighbourhood       ,152.9523468,-27.44553375,Brisbane                                ,Brisbane City,"Suite 14, 1000 Waterworks Road, The Gap QLD 4061",The Gap,QLD,4061      ,1986,2000 2002,"9,536"
The Harvey Norman Centre,Bulky Goods         ,151.9479523,-27.59716988,Darling Downs                           ,Toowoomba,"Lot 9, 916 Ruthven Street, Kearneys Spring QLD 4350",Kearneys Spring,QLD,4350      ,0,,"23,860"
The Myer Centre - Brisbane,City Centre         ,153.0243835,-27.47027016,Brisbane                                ,Brisbane City,"91 Queen Street, Brisbane QLD 4000",Brisbane,QLD,4000      ,1998,2006,"63,707"
The Oasis Shopping Centre,Themed              ,153.4328003,-28.02946663,Moreton                                 ,Gold Coast City Part B,"Level 2 Victoria Avenue, Broadbeach QLD ",Broadbeach,QLD,4218      ,1989,1993 1996 1997 2005 2016,"21,301"
The Pavillion,City Centre         ,153.0249939,-27.46957016,Brisbane                                ,Brisbane City,"130 Queen Street Mall, Brisbane QLD 4000",Brisbane,QLD,4000      ,1971,1993 1997 2003 ,"3,607"
The Pier Shopping Centre,Themed              ,145.7801971,-16.9196701,Far North                               ,Cairns City,"Pierpoint Road, Cairns QLD 4870",Cairns,QLD,4870      ,1989,2004 2007,"7,171"
The Pines Shopping Centre (QLD),Regional            ,153.468811,-28.13480568,Moreton                                 ,Gold Coast City Part B,"Cnr KP McGrath Drive & Guineas Creek Road, Elanora QLD 4221",Elanora,QLD,4221      ,1987,1988 1992 1998 2006 2015,"33,779"
The Plaza @ Emerald,Neighbourhood       ,148.1645508,-23.5284729,Moreton                                 ,Gold Coast City Part B,"144 Egerton Street, Emerald QLD 4720",Emerald,QLD,4720      ,1997,,"6,472"
The Ridge Shoppingworld,Neighbourhood       ,151.9512939,-27.59477043,Darling Downs                           ,Darling Downs,"445-455 Hume Street, Kearneys Spring QLD 4350",Kearneys Spring,QLD,4350      ,2007,,"6,128"
The Strand - Caloundra,Neighbourhood       ,153.1346283,-26.80471039,Moreton                                 ,Sunshine Coast,"Cnr Bulcock Street & Knox Avenue, Caloundra QLD 4551",Caloundra,QLD,4551      ,1980,,"2,466"
"The Village Centre, Kelvin Grove",Neighbourhood       ,153.0142212,-27.45377159,Brisbane                                ,Brisbane City,"8 Carraway Street, Kelvin Grove QLD 4059",Kelvin Grove,QLD,4059      ,2006,,"5,034"
The Zone Maroochydore,Bulky Goods         ,153.0527649,-26.40228081,Moreton                                 ,Sunshine Coast,"32 Wises Road, Maroochydore QLD 4556",Maroochydore,QLD,4556      ,2005,,"10,083"
The Zone Oxley,Bulky Goods         ,152.5857391,-27.34005165,Brisbane                                ,Brisbane City,"2118 Ipswich Road, Oxley QLD 4075",Oxley,QLD,4075      ,2009,,"8,228"
Toombul,Regional            ,153.0618744,-27.40948868,Brisbane                                ,Brisbane City,"1015 Sandgate Road, Toombul QLD 4012",Toombul,QLD,4012      ,1967,1972 1980 1989 2003 2006 2011 2018,"44,265"
Toowong Village,Sub Regional        ,152.9923706,-27.48508644,Brisbane                                ,Brisbane City,"9 Sherwood Road, Toowong QLD 4066",Toowong,QLD,4066      ,1986,1992 1997 2003 2014,"48,209"
Toowoomba Plaza,Sub Regional        ,151.9488068,-27.59422302,Darling Downs                           ,Toowoomba,"Cnr Ruthven & Stenner Streets, Toowoomba QLD 4350",Toowoomba,QLD,4350      ,1977,1998 2009,"13,106"
Town Plaza Charters Towers,Neighbourhood       ,146.2582703,-20.07578087,Northern                                ,Northern,"37 Gill Street, Charters Towers QLD 4820",Charters Towers,QLD,4820      ,1980,2001,"3,546"
Town Square Redbank Plains,Sub Regional        ,152.8710022,-27.64597321,Brisbane                                ,Ipswich City,"357-403 Redbank Plains  Road, Redbank QLD 4031",Redbank,QLD,4031      ,2006,2006 2016,"27,798"
TownCentre Victoria Point,Sub Regional        ,153.2835693,-27.58550453,Brisbane                                ,Redland Shire,"349-369 Colburn Avenue, Victoria Point QLD 4165",Victoria Point,QLD,4165      ,2003,2004 2005 2015,"26,080"
Treetops Plaza,Neighbourhood       ,153.4251709,-28.09990311,Moreton                                 ,Gold Coast City Part B,"7 Classic Way, Burleigh Waters QLD 4220",Burleigh Waters,QLD,4220      ,1992,1994 2012,"6,787"
Underwood Marketplace,Sub Regional        ,153.109848,-27.60729408,Brisbane                                ,Logan City,"3215 Logan Road, Underwood QLD 4119",Underwood,QLD,4119      ,2007,,"23,536"
Urangan Central,Neighbourhood       ,152.8930664,-25.29180717,Wide Bay-Burnett                        ,Hervey Bay City,"Cnr Boat Harbour Drive & Elizabeth Street, Urangan QLD 4655",Urangan,QLD,4655      ,1996,,"4,993"
Valley Metro,Neighbourhood       ,153.0346375,-27.45772171,Brisbane                                ,Brisbane City,"230 Brunswick Street, Fortitude Valley QLD 4006",Fortitude Valley,QLD,4006      ,1973,1975 1999 2004-2005,"38,388"
Victoria Point Shopping Centre,Sub Regional        ,153.2811127,-27.58667183,Brisbane                                ,Redland Shire,"Cnr Cleveland - Redland Bay & Bunker Roads, Victoria Point QLD 4165",Victoria Point,QLD,4165      ,2002,2001 2004,"26,937"
Vincent Shopping Centre,Neighbourhood       ,146.7614899,-19.28759956,Brisbane                                ,Brisbane City,"Cnr Nathan Street & Fulham Road, Vincent QLD 4814",Vincent,QLD,4814      ,1974,2000 2001,"5,182"
Warana Village Shopping Centre,Neighbourhood       ,153.1298828,-26.72541618,Moreton                                 ,Sunshine Coast,"239 Nicklin Way, Warana QLD 4575",Warana,QLD,4575      ,0,,"1,525"
Warrigal Square Shopping Centre,Neighbourhood       ,153.0867004,-27.58992004,Brisbane                                ,Brisbane City,"261 Warrigal Road, Eight Mile Plains QLD 4113",Eight Mile Plains,QLD,4113      ,2011,2014,"6,452"
Waterford Plaza (QLD),Neighbourhood       ,153.1350708,-27.6926403,Brisbane                                ,Logan City,"Cnr Kingston-Beenleigh & Tygum Roads, Waterford West QLD 4133",Waterford West,QLD,4133      ,1988,1994 2006,"6,383"
Westfield Carindale,Super Regional      ,153.1016388,-27.50287819,Brisbane                                ,Brisbane City,"1151 Creek Road, Carindale QLD 4152",Carindale,QLD,4152      ,1979,1984 1991 1997 1999 2006 2012,"136,611"
Westfield Chermside,Super Regional      ,153.0323792,-27.38395309,Brisbane                                ,Brisbane City,"Cnr Gympie & Hamilton Roads, Chermside QLD 4032",Chermside,QLD,4032      ,1957,1986 1991 1998 2000 2006 2017,"175,553"
Westfield Garden City,Super Regional      ,153.0818024,-27.56271553,Brisbane                                ,Brisbane City,"Cnr Kessels & Logan  Roads, Upper Mount Gravatt QLD 4122",Upper Mount Gravatt,QLD,4122      ,1965,1986 1998 2004 2014,"140,605"
Westfield Helensvale,Regional            ,153.3358307,-27.9264183,Moreton                                 ,Gold Coast City Part B,"1-29 Millaroo Drive, Helensvale QLD 4212",Helensvale,QLD,4212      ,2005,,"44,870"
Westfield North Lakes,Super Regional      ,153.0210114,-27.24162483,Brisbane                                ,Pine Rivers Shire,"Cnr Anzac Avenue & North Lakes Drive, North Lakes QLD 4509",North Lakes,QLD,4509      ,2003,2007 2016,"114,596"
Westlands Plaza,Neighbourhood       ,148.7900238,-26.57322502,South West                              ,South West,"Wyndham Street, Roma QLD 4455",Roma,QLD,4455      ,1985,2002,"4,908"
Westpoint Shopping Centre (QLD),Neighbourhood       ,153.0393219,-27.659729,Brisbane                                ,Logan City,"8-24 Browns Plains Road, Browns Plains QLD 4118",Browns Plains,QLD,4118      ,1984,1997 2002 2008,"5,982"
Westside Plaza (QLD),Neighbourhood       ,152.3193359,-24.88758469,Wide Bay-Burnett                        ,Bundaberg,"14 Heidke Street, Bundaberg QLD 4670",Bundaberg,QLD,4670      ,0,2007,"4,563"
Whitsunday Plaza,Sub Regional        ,148.6750641,-20.29138756,Mackay                                  ,Mackay City,"8 Galbraith Park Drive, Cannonvale QLD 4802",Cannonvale,QLD,4802      ,2006,,"22,394"
Whitsunday Shopping Centre,Neighbourhood       ,148.6946411,-20.27667427,Mackay                                  ,Mackay City,"226 Shute Harbour Road, Cannonvale QLD 4802",Cannonvale,QLD,4802      ,1985,1997,"10,968"
Willows Shoppingtown,Regional            ,146.7262421,-19.3163929,Northern                                ,Thuringowa City,"Cnr Thuringowa Drive & Hervey Range Road, Kirwan QLD 4817",Kirwan,QLD,4817      ,1985,1994 2009 2017,"45,588"
Wilsonton Shopping Centre,Sub Regional        ,151.9244385,-27.54368782,Darling Downs                           ,Toowoomba,"407 Bridge Street, Toowoomba QLD 4350",Toowoomba,QLD,4350      ,1986,2010 2015,"17,461"
Windsor Homemaker Centre,Bulky Goods         ,153.034317,-27.42166328,Brisbane                                ,Brisbane City,"190 Lutwyche Road, Windsor QLD 4030",Windsor,QLD,4030      ,1988,,"9,381"
Winston Glades Shopping Centre,Neighbourhood       ,152.7644653,-27.65323257,Brisbane                                ,Ipswich City,"259 Ash Street, Flinders View QLD 4305",Flinders View,QLD,4305      ,1998,2009,"5,420"
Wintergarden Shopping Centre,City Centre         ,153.0263977,-27.46931458,Brisbane                                ,Brisbane City,"171-209 Queen Street Mall, Brisbane QLD 4000",Brisbane,QLD,4000      ,1982,1986 1996 1997 2010-2012,"13,534"
Woodlands Village,Neighbourhood       ,146.6763306,-19.24592209,Northern                                ,Thuringowa City,"28 Palm Drive, Deeragun QLD 4818",Deeragun,QLD,4818      ,1985,1994 2001 2002,"5,592"
Woolworths Everton Park,Neighbourhood       ,152.9916992,-27.40761757,Brisbane                                ,Brisbane City,"768 Stafford Road, Everton QLD 4053",Everton,QLD,4053      ,2015,,"5,685"
Woolworths Kirkwood,Neighbourhood       ,151.142868,-23.54061508,Fitzroy                                 ,Gladstone,"Cnr Kirkwood Road & Dixon Drive, Kirkwood QLD 4680",Kirkwood,QLD,4680      ,2012,,"5,053"
"Woolworths Marketplace, Albany Creek",Neighbourhood       ,152.9693451,-27.35834885,Brisbane                                ,Pine Rivers Shire,"Cnr Old Northern Road & Albany Forest Drive, Albany Creek QLD 4035",Albany Creek,QLD,4035      ,1997,,"6,190"
Wynnum Plaza Shopping Centre,Sub Regional        ,153.1548462,-27.45701981,Brisbane                                ,Brisbane City,"2021 Wynnum Road, Wynnum West QLD 4178",Wynnum West,QLD,4178      ,1980,1996 1997 2006,"29,382"
Wynnum Shopping Centre,Neighbourhood       ,153.1731262,-27.44347572,Brisbane                                ,Brisbane City,"Cnr Bay Terrace & Florence Street, Wynnum QLD 4178",Wynnum,QLD,4178      ,1988,,"3,847"
Yamanto Village,Sub Regional        ,152.7402802,-27.66234589,Brisbane                                ,Ipswich City,"512 Warwick Road, Yamanto QLD 4305",Yamanto,QLD,4305      ,0,,"12,743"
Yandina Shopping Centre,Neighbourhood       ,152.9545135,-26.56309509,Moreton                                 ,Sunshine Coast,"1 Old Gympie Road, Yandina QLD 4561",Yandina,QLD,4561      ,0,,"1,971"
Zone Underwood,Bulky Goods         ,153.0652008,-27.37090874,Brisbane                                ,Logan City,"1-17 Compton Road, Underwood QLD 4119",Underwood,QLD,4119      ,2005,2018,"10,767"
